{
    "type": "FeatureCollection",
    "features": [
        {
            "type": "Feature",
            "geometry": {
                "type": "Point",
                "coordinates": [
                    13.217065340170013,
                    52.468747933126636
                ]
            },
            "properties": {
                "Gartentyp": "Beetpatenschaften"
            }
        },
        {
            "type": "Feature",
            "geometry": {
                "type": "Point",
                "coordinates": [
                    13.32258384974686,
                    52.48909725397577
                ]
            },
            "properties": {
                "Gartentyp": "Beetpatenschaften"
            }
        },
        {
            "type": "Feature",
            "geometry": {
                "type": "Point",
                "coordinates": [
                    13.162610990210375,
                    52.4722536012676
                ]
            },
            "properties": {
                "Gartentyp": "Beetpatenschaften"
            }
        },
        {
            "type": "Feature",
            "geometry": {
                "type": "Point",
                "coordinates": [
                    13.47647037342895,
                    52.410276444186565
                ]
            },
            "properties": {
                "Gartentyp": "Beetpatenschaften"
            }
        },
        {
            "type": "Feature",
            "geometry": {
                "type": "Point",
                "coordinates": [
                    13.236347530588798,
                    52.446057012607326
                ]
            },
            "properties": {
                "Gartentyp": "Beetpatenschaften"
            }
        },
        {
            "type": "Feature",
            "geometry": {
                "type": "Point",
                "coordinates": [
                    13.339519710324728,
                    52.571493777569614
                ]
            },
            "properties": {
                "Gartentyp": "Beetpatenschaften"
            }
        },
        {
            "type": "Feature",
            "geometry": {
                "type": "Point",
                "coordinates": [
                    13.345933912844341,
                    52.408247162772724
                ]
            },
            "properties": {
                "Gartentyp": "Beetpatenschaften"
            }
        },
        {
            "type": "Feature",
            "geometry": {
                "type": "Point",
                "coordinates": [
                    13.594362223052833,
                    52.4261084760487
                ]
            },
            "properties": {
                "Gartentyp": "Beetpatenschaften"
            }
        },
        {
            "type": "Feature",
            "geometry": {
                "type": "Point",
                "coordinates": [
                    13.463921214838518,
                    52.41442718850584
                ]
            },
            "properties": {
                "Gartentyp": "Beetpatenschaften"
            }
        },
        {
            "type": "Feature",
            "geometry": {
                "type": "Point",
                "coordinates": [
                    13.215629876851201,
                    52.58015738581106
                ]
            },
            "properties": {
                "Gartentyp": "Beetpatenschaften"
            }
        },
        {
            "type": "Feature",
            "geometry": {
                "type": "Point",
                "coordinates": [
                    13.552565690985984,
                    52.50688335717172
                ]
            },
            "properties": {
                "Gartentyp": "Beetpatenschaften"
            }
        },
        {
            "type": "Feature",
            "geometry": {
                "type": "Point",
                "coordinates": [
                    13.403764425113112,
                    52.45313320339338
                ]
            },
            "properties": {
                "Gartentyp": "Beetpatenschaften"
            }
        },
        {
            "type": "Feature",
            "geometry": {
                "type": "Point",
                "coordinates": [
                    13.533871995190816,
                    52.57343174012384
                ]
            },
            "properties": {
                "Gartentyp": "Beetpatenschaften"
            }
        },
        {
            "type": "Feature",
            "geometry": {
                "type": "Point",
                "coordinates": [
                    13.547916589600796,
                    52.53196597372573
                ]
            },
            "properties": {
                "Gartentyp": "Beetpatenschaften"
            }
        },
        {
            "type": "Feature",
            "geometry": {
                "type": "Point",
                "coordinates": [
                    13.172295380300486,
                    52.409646783894146
                ]
            },
            "properties": {
                "Gartentyp": "Beetpatenschaften"
            }
        },
        {
            "type": "Feature",
            "geometry": {
                "type": "Point",
                "coordinates": [
                    13.204348508433213,
                    52.425723889123795
                ]
            },
            "properties": {
                "Gartentyp": "Beetpatenschaften"
            }
        },
        {
            "type": "Feature",
            "geometry": {
                "type": "Point",
                "coordinates": [
                    13.315378558681527,
                    52.45731550734623
                ]
            },
            "properties": {
                "Gartentyp": "Beetpatenschaften"
            }
        },
        {
            "type": "Feature",
            "geometry": {
                "type": "Point",
                "coordinates": [
                    13.176590795267039,
                    52.57769270813177
                ]
            },
            "properties": {
                "Gartentyp": "Beetpatenschaften"
            }
        },
        {
            "type": "Feature",
            "geometry": {
                "type": "Point",
                "coordinates": [
                    13.334774263355063,
                    52.524215257546935
                ]
            },
            "properties": {
                "Gartentyp": "Beetpatenschaften"
            }
        },
        {
            "type": "Feature",
            "geometry": {
                "type": "Point",
                "coordinates": [
                    13.31840045835053,
                    52.515558174399494
                ]
            },
            "properties": {
                "Gartentyp": "Beetpatenschaften"
            }
        },
        {
            "type": "Feature",
            "geometry": {
                "type": "Point",
                "coordinates": [
                    13.498925009137727,
                    52.49642680176954
                ]
            },
            "properties": {
                "Gartentyp": "Beetpatenschaften"
            }
        },
        {
            "type": "Feature",
            "geometry": {
                "type": "Point",
                "coordinates": [
                    13.456303550634635,
                    52.485032883942026
                ]
            },
            "properties": {
                "Gartentyp": "Beetpatenschaften"
            }
        },
        {
            "type": "Feature",
            "geometry": {
                "type": "Point",
                "coordinates": [
                    13.277504416001802,
                    52.44384631259176
                ]
            },
            "properties": {
                "Gartentyp": "Beetpatenschaften"
            }
        },
        {
            "type": "Feature",
            "geometry": {
                "type": "Point",
                "coordinates": [
                    13.298912389900178,
                    52.51163224804946
                ]
            },
            "properties": {
                "Gartentyp": "Beetpatenschaften"
            }
        },
        {
            "type": "Feature",
            "geometry": {
                "type": "Point",
                "coordinates": [
                    13.192929003533573,
                    52.47659866106652
                ]
            },
            "properties": {
                "Gartentyp": "Beetpatenschaften"
            }
        },
        {
            "type": "Feature",
            "geometry": {
                "type": "Point",
                "coordinates": [
                    13.201675077468762,
                    52.55708086096387
                ]
            },
            "properties": {
                "Gartentyp": "Beetpatenschaften"
            }
        },
        {
            "type": "Feature",
            "geometry": {
                "type": "Point",
                "coordinates": [
                    13.396176425669168,
                    52.46863107349621
                ]
            },
            "properties": {
                "Gartentyp": "Beetpatenschaften"
            }
        },
        {
            "type": "Feature",
            "geometry": {
                "type": "Point",
                "coordinates": [
                    13.162812895299778,
                    52.41982032411951
                ]
            },
            "properties": {
                "Gartentyp": "Beetpatenschaften"
            }
        },
        {
            "type": "Feature",
            "geometry": {
                "type": "Point",
                "coordinates": [
                    13.337283533727232,
                    52.51758008292736
                ]
            },
            "properties": {
                "Gartentyp": "Beetpatenschaften"
            }
        },
        {
            "type": "Feature",
            "geometry": {
                "type": "Point",
                "coordinates": [
                    13.589006734451287,
                    52.57500207100612
                ]
            },
            "properties": {
                "Gartentyp": "Beetpatenschaften"
            }
        },
        {
            "type": "Feature",
            "geometry": {
                "type": "Point",
                "coordinates": [
                    13.461565744439316,
                    52.57988338815012
                ]
            },
            "properties": {
                "Gartentyp": "Beetpatenschaften"
            }
        },
        {
            "type": "Feature",
            "geometry": {
                "type": "Point",
                "coordinates": [
                    13.210059267938332,
                    52.52441717085264
                ]
            },
            "properties": {
                "Gartentyp": "Beetpatenschaften"
            }
        },
        {
            "type": "Feature",
            "geometry": {
                "type": "Point",
                "coordinates": [
                    13.30062072486581,
                    52.51768598875103
                ]
            },
            "properties": {
                "Gartentyp": "Beetpatenschaften"
            }
        },
        {
            "type": "Feature",
            "geometry": {
                "type": "Point",
                "coordinates": [
                    13.412788097770257,
                    52.576702938559635
                ]
            },
            "properties": {
                "Gartentyp": "Beetpatenschaften"
            }
        },
        {
            "type": "Feature",
            "geometry": {
                "type": "Point",
                "coordinates": [
                    13.215428026579271,
                    52.577543748116184
                ]
            },
            "properties": {
                "Gartentyp": "Beetpatenschaften"
            }
        },
        {
            "type": "Feature",
            "geometry": {
                "type": "Point",
                "coordinates": [
                    13.268181344155419,
                    52.57424233713863
                ]
            },
            "properties": {
                "Gartentyp": "Beetpatenschaften"
            }
        },
        {
            "type": "Feature",
            "geometry": {
                "type": "Point",
                "coordinates": [
                    13.373227500406074,
                    52.442272111475894
                ]
            },
            "properties": {
                "Gartentyp": "Beetpatenschaften"
            }
        },
        {
            "type": "Feature",
            "geometry": {
                "type": "Point",
                "coordinates": [
                    13.387769668477164,
                    52.571166965011315
                ]
            },
            "properties": {
                "Gartentyp": "Beetpatenschaften"
            }
        },
        {
            "type": "Feature",
            "geometry": {
                "type": "Point",
                "coordinates": [
                    13.580597553083145,
                    52.514731348057005
                ]
            },
            "properties": {
                "Gartentyp": "Beetpatenschaften"
            }
        },
        {
            "type": "Feature",
            "geometry": {
                "type": "Point",
                "coordinates": [
                    13.442510820666486,
                    52.56458769036554
                ]
            },
            "properties": {
                "Gartentyp": "Beetpatenschaften"
            }
        },
        {
            "type": "Feature",
            "geometry": {
                "type": "Point",
                "coordinates": [
                    13.187990208121956,
                    52.418765441876424
                ]
            },
            "properties": {
                "Gartentyp": "Beetpatenschaften"
            }
        },
        {
            "type": "Feature",
            "geometry": {
                "type": "Point",
                "coordinates": [
                    13.387462985654338,
                    52.53900904343401
                ]
            },
            "properties": {
                "Gartentyp": "Beetpatenschaften"
            }
        },
        {
            "type": "Feature",
            "geometry": {
                "type": "Point",
                "coordinates": [
                    13.447217880876709,
                    52.57457175975855
                ]
            },
            "properties": {
                "Gartentyp": "Beetpatenschaften"
            }
        },
        {
            "type": "Feature",
            "geometry": {
                "type": "Point",
                "coordinates": [
                    13.308466770972347,
                    52.51335286933072
                ]
            },
            "properties": {
                "Gartentyp": "Beetpatenschaften"
            }
        },
        {
            "type": "Feature",
            "geometry": {
                "type": "Point",
                "coordinates": [
                    13.37145868195045,
                    52.471052459078784
                ]
            },
            "properties": {
                "Gartentyp": "Beetpatenschaften"
            }
        },
        {
            "type": "Feature",
            "geometry": {
                "type": "Point",
                "coordinates": [
                    13.584561150379885,
                    52.49180230400192
                ]
            },
            "properties": {
                "Gartentyp": "Beetpatenschaften"
            }
        },
        {
            "type": "Feature",
            "geometry": {
                "type": "Point",
                "coordinates": [
                    13.241597733453062,
                    52.57213668875726
                ]
            },
            "properties": {
                "Gartentyp": "Beetpatenschaften"
            }
        },
        {
            "type": "Feature",
            "geometry": {
                "type": "Point",
                "coordinates": [
                    13.227514806774058,
                    52.57321289632066
                ]
            },
            "properties": {
                "Gartentyp": "Beetpatenschaften"
            }
        },
        {
            "type": "Feature",
            "geometry": {
                "type": "Point",
                "coordinates": [
                    13.366720425780459,
                    52.40716716874185
                ]
            },
            "properties": {
                "Gartentyp": "Beetpatenschaften"
            }
        },
        {
            "type": "Feature",
            "geometry": {
                "type": "Point",
                "coordinates": [
                    13.556385992077088,
                    52.53747481508269
                ]
            },
            "properties": {
                "Gartentyp": "Beetpatenschaften"
            }
        },
        {
            "type": "Feature",
            "geometry": {
                "type": "Point",
                "coordinates": [
                    13.365984554701031,
                    52.50416024202504
                ]
            },
            "properties": {
                "Gartentyp": "Beetpatenschaften"
            }
        },
        {
            "type": "Feature",
            "geometry": {
                "type": "Point",
                "coordinates": [
                    13.252883023855018,
                    52.46719555666633
                ]
            },
            "properties": {
                "Gartentyp": "Beetpatenschaften"
            }
        },
        {
            "type": "Feature",
            "geometry": {
                "type": "Point",
                "coordinates": [
                    13.512570777338793,
                    52.555818201325444
                ]
            },
            "properties": {
                "Gartentyp": "Beetpatenschaften"
            }
        },
        {
            "type": "Feature",
            "geometry": {
                "type": "Point",
                "coordinates": [
                    13.30094291314656,
                    52.52178653714352
                ]
            },
            "properties": {
                "Gartentyp": "Beetpatenschaften"
            }
        },
        {
            "type": "Feature",
            "geometry": {
                "type": "Point",
                "coordinates": [
                    13.540281294459254,
                    52.47053831863132
                ]
            },
            "properties": {
                "Gartentyp": "Beetpatenschaften"
            }
        },
        {
            "type": "Feature",
            "geometry": {
                "type": "Point",
                "coordinates": [
                    13.31840768834066,
                    52.5199438220608
                ]
            },
            "properties": {
                "Gartentyp": "Beetpatenschaften"
            }
        },
        {
            "type": "Feature",
            "geometry": {
                "type": "Point",
                "coordinates": [
                    13.235110014352545,
                    52.57176895749708
                ]
            },
            "properties": {
                "Gartentyp": "Beetpatenschaften"
            }
        },
        {
            "type": "Feature",
            "geometry": {
                "type": "Point",
                "coordinates": [
                    13.52440209280563,
                    52.53903716942237
                ]
            },
            "properties": {
                "Gartentyp": "Beetpatenschaften"
            }
        },
        {
            "type": "Feature",
            "geometry": {
                "type": "Point",
                "coordinates": [
                    13.381268817710135,
                    52.48111293868171
                ]
            },
            "properties": {
                "Gartentyp": "Beetpatenschaften"
            }
        },
        {
            "type": "Feature",
            "geometry": {
                "type": "Point",
                "coordinates": [
                    13.43224705875055,
                    52.499043169746095
                ]
            },
            "properties": {
                "Gartentyp": "Beetpatenschaften"
            }
        },
        {
            "type": "Feature",
            "geometry": {
                "type": "Point",
                "coordinates": [
                    13.519742126847165,
                    52.43499680804048
                ]
            },
            "properties": {
                "Gartentyp": "Beetpatenschaften"
            }
        },
        {
            "type": "Feature",
            "geometry": {
                "type": "Point",
                "coordinates": [
                    13.27760149642021,
                    52.4243050466789
                ]
            },
            "properties": {
                "Gartentyp": "Beetpatenschaften"
            }
        },
        {
            "type": "Feature",
            "geometry": {
                "type": "Point",
                "coordinates": [
                    13.32146145950509,
                    52.50499202042692
                ]
            },
            "properties": {
                "Gartentyp": "Beetpatenschaften"
            }
        },
        {
            "type": "Feature",
            "geometry": {
                "type": "Point",
                "coordinates": [
                    13.581465863455499,
                    52.51500555285809
                ]
            },
            "properties": {
                "Gartentyp": "Beetpatenschaften"
            }
        },
        {
            "type": "Feature",
            "geometry": {
                "type": "Point",
                "coordinates": [
                    13.336115000981021,
                    52.437276993474725
                ]
            },
            "properties": {
                "Gartentyp": "Beetpatenschaften"
            }
        },
        {
            "type": "Feature",
            "geometry": {
                "type": "Point",
                "coordinates": [
                    13.45540050291701,
                    52.5145276484414
                ]
            },
            "properties": {
                "Gartentyp": "Beetpatenschaften"
            }
        },
        {
            "type": "Feature",
            "geometry": {
                "type": "Point",
                "coordinates": [
                    13.194624568437192,
                    52.52690297318993
                ]
            },
            "properties": {
                "Gartentyp": "Beetpatenschaften"
            }
        },
        {
            "type": "Feature",
            "geometry": {
                "type": "Point",
                "coordinates": [
                    13.31151398580903,
                    52.51347538048515
                ]
            },
            "properties": {
                "Gartentyp": "Beetpatenschaften"
            }
        },
        {
            "type": "Feature",
            "geometry": {
                "type": "Point",
                "coordinates": [
                    13.455052727023949,
                    52.515270720185555
                ]
            },
            "properties": {
                "Gartentyp": "Beetpatenschaften"
            }
        },
        {
            "type": "Feature",
            "geometry": {
                "type": "Point",
                "coordinates": [
                    13.283397848575596,
                    52.43902746715194
                ]
            },
            "properties": {
                "Gartentyp": "Beetpatenschaften"
            }
        },
        {
            "type": "Feature",
            "geometry": {
                "type": "Point",
                "coordinates": [
                    13.44973996043252,
                    52.47743294211029
                ]
            },
            "properties": {
                "Gartentyp": "Beetpatenschaften"
            }
        },
        {
            "type": "Feature",
            "geometry": {
                "type": "Point",
                "coordinates": [
                    13.520417510340213,
                    52.47146401723555
                ]
            },
            "properties": {
                "Gartentyp": "Beetpatenschaften"
            }
        },
        {
            "type": "Feature",
            "geometry": {
                "type": "Point",
                "coordinates": [
                    13.276765655622338,
                    52.434484526121054
                ]
            },
            "properties": {
                "Gartentyp": "Beetpatenschaften"
            }
        },
        {
            "type": "Feature",
            "geometry": {
                "type": "Point",
                "coordinates": [
                    13.45478907584202,
                    52.4327739956321
                ]
            },
            "properties": {
                "Gartentyp": "Beetpatenschaften"
            }
        },
        {
            "type": "Feature",
            "geometry": {
                "type": "Point",
                "coordinates": [
                    13.290345416190496,
                    52.57560942292391
                ]
            },
            "properties": {
                "Gartentyp": "Beetpatenschaften"
            }
        },
        {
            "type": "Feature",
            "geometry": {
                "type": "Point",
                "coordinates": [
                    13.21650398590968,
                    52.546733526688776
                ]
            },
            "properties": {
                "Gartentyp": "Beetpatenschaften"
            }
        },
        {
            "type": "Feature",
            "geometry": {
                "type": "Point",
                "coordinates": [
                    13.251316535842111,
                    52.56734500145548
                ]
            },
            "properties": {
                "Gartentyp": "Beetpatenschaften"
            }
        },
        {
            "type": "Feature",
            "geometry": {
                "type": "Point",
                "coordinates": [
                    13.5786584126891,
                    52.50343435311707
                ]
            },
            "properties": {
                "Gartentyp": "Beetpatenschaften"
            }
        },
        {
            "type": "Feature",
            "geometry": {
                "type": "Point",
                "coordinates": [
                    13.430042629339841,
                    52.46516359606224
                ]
            },
            "properties": {
                "Gartentyp": "Beetpatenschaften"
            }
        },
        {
            "type": "Feature",
            "geometry": {
                "type": "Point",
                "coordinates": [
                    13.374288270065225,
                    52.57683069694142
                ]
            },
            "properties": {
                "Gartentyp": "Beetpatenschaften"
            }
        },
        {
            "type": "Feature",
            "geometry": {
                "type": "Point",
                "coordinates": [
                    13.26589701729863,
                    52.528165165531504
                ]
            },
            "properties": {
                "Gartentyp": "Beetpatenschaften"
            }
        },
        {
            "type": "Feature",
            "geometry": {
                "type": "Point",
                "coordinates": [
                    13.34213243865542,
                    52.444289953260586
                ]
            },
            "properties": {
                "Gartentyp": "Beetpatenschaften"
            }
        },
        {
            "type": "Feature",
            "geometry": {
                "type": "Point",
                "coordinates": [
                    13.425244252483072,
                    52.542061469263956
                ]
            },
            "properties": {
                "Gartentyp": "Beetpatenschaften"
            }
        },
        {
            "type": "Feature",
            "geometry": {
                "type": "Point",
                "coordinates": [
                    13.582046619666553,
                    52.58146673033202
                ]
            },
            "properties": {
                "Gartentyp": "Beetpatenschaften"
            }
        },
        {
            "type": "Feature",
            "geometry": {
                "type": "Point",
                "coordinates": [
                    13.184694222502323,
                    52.425902465159936
                ]
            },
            "properties": {
                "Gartentyp": "Beetpatenschaften"
            }
        },
        {
            "type": "Feature",
            "geometry": {
                "type": "Point",
                "coordinates": [
                    13.201199613681913,
                    52.53586947529579
                ]
            },
            "properties": {
                "Gartentyp": "Beetpatenschaften"
            }
        },
        {
            "type": "Feature",
            "geometry": {
                "type": "Point",
                "coordinates": [
                    13.312161589372115,
                    52.48847405129364
                ]
            },
            "properties": {
                "Gartentyp": "Beetpatenschaften"
            }
        },
        {
            "type": "Feature",
            "geometry": {
                "type": "Point",
                "coordinates": [
                    13.350105053223016,
                    52.46842485693298
                ]
            },
            "properties": {
                "Gartentyp": "Beetpatenschaften"
            }
        },
        {
            "type": "Feature",
            "geometry": {
                "type": "Point",
                "coordinates": [
                    13.28531281628826,
                    52.477539946880384
                ]
            },
            "properties": {
                "Gartentyp": "Beetpatenschaften"
            }
        },
        {
            "type": "Feature",
            "geometry": {
                "type": "Point",
                "coordinates": [
                    13.407196060566598,
                    52.443499930017005
                ]
            },
            "properties": {
                "Gartentyp": "Beetpatenschaften"
            }
        },
        {
            "type": "Feature",
            "geometry": {
                "type": "Point",
                "coordinates": [
                    13.315183890906145,
                    52.450209001342365
                ]
            },
            "properties": {
                "Gartentyp": "Beetpatenschaften"
            }
        },
        {
            "type": "Feature",
            "geometry": {
                "type": "Point",
                "coordinates": [
                    13.609939880581837,
                    52.53504145663375
                ]
            },
            "properties": {
                "Gartentyp": "Beetpatenschaften"
            }
        },
        {
            "type": "Feature",
            "geometry": {
                "type": "Point",
                "coordinates": [
                    13.335937182663317,
                    52.43646761798149
                ]
            },
            "properties": {
                "Gartentyp": "Beetpatenschaften"
            }
        },
        {
            "type": "Feature",
            "geometry": {
                "type": "Point",
                "coordinates": [
                    13.516400961371367,
                    52.563904358682855
                ]
            },
            "properties": {
                "Gartentyp": "Beetpatenschaften"
            }
        },
        {
            "type": "Feature",
            "geometry": {
                "type": "Point",
                "coordinates": [
                    13.36895342182246,
                    52.41204285044729
                ]
            },
            "properties": {
                "Gartentyp": "Beetpatenschaften"
            }
        },
        {
            "type": "Feature",
            "geometry": {
                "type": "Point",
                "coordinates": [
                    13.39791055605075,
                    52.480568517191585
                ]
            },
            "properties": {
                "Gartentyp": "Beetpatenschaften"
            }
        },
        {
            "type": "Feature",
            "geometry": {
                "type": "Point",
                "coordinates": [
                    13.276464960835442,
                    52.53690521364971
                ]
            },
            "properties": {
                "Gartentyp": "Beetpatenschaften"
            }
        },
        {
            "type": "Feature",
            "geometry": {
                "type": "Point",
                "coordinates": [
                    13.29330498230019,
                    52.48660159553266
                ]
            },
            "properties": {
                "Gartentyp": "Beetpatenschaften"
            }
        },
        {
            "type": "Feature",
            "geometry": {
                "type": "Point",
                "coordinates": [
                    13.26582986282457,
                    52.42294882089999
                ]
            },
            "properties": {
                "Gartentyp": "Beetpatenschaften"
            }
        },
        {
            "type": "Feature",
            "geometry": {
                "type": "Point",
                "coordinates": [
                    13.241068032441081,
                    52.49416524551603
                ]
            },
            "properties": {
                "Gartentyp": "Beetpatenschaften"
            }
        }
    ]
}