{
    "type": "FeatureCollection",
    "name": "DatenbasisKarteBP",
    "crs": {
        "type": "name",
        "properties": {
            "name": "urn:ogc:def:crs:EPSG::4326"
        }
    },
    "features": [
        {
            "type": "Feature",
            "geometry": {
                "type": "Point",
                "coordinates": [
                    13.328706,
                    52.493085
                ]
            },
            "properties": {
                "Debug": "DUMMY FOR LEGEND-ICON"
            }
        },
        {
            "type": "Feature",
            "geometry": {
                "type": "Point",
                "coordinates": [
                    13.328706,
                    52.493085
                ]
            },
            "properties": {
                "Lfd Nummer": "BP-0001",
                "Name": "Nikolsburger Platz zum Essen",
                "Gartentyp": "Beetpatenschaft",
                "Status": "Status unbekannt",
                "Straße": "Nikolsburger Platz 1",
                "PLZ": "10717 Berlin",
                "Bezirk": "Charlottenburg-Wilmersdorf",
                "Website  Social Media": "http://nikolsburgerplatzzumessen.wordpress.com",
                "EMail  Kontakt": "nikolsburgerplatzzumessen@gmx.de",
                "Seit wann": 2013
            }
        }
    ]
}