{
    "type": "FeatureCollection",
    "name": "DatenbasisKarteFP",
    "crs": {
        "type": "name",
        "properties": {
            "name": "urn:ogc:def:crs:EPSG::4326"
        }
    },
    "features": [
        {
            "type": "Feature",
            "geometry": {
                "type": "Point",
                "coordinates": [
                    13.501915,
                    52.549405
                ]
            },
            "properties": {
                "debug": "DUMMY"
            }
        },
        {
            "type": "Feature",
            "geometry": {
                "type": "Point",
                "coordinates": [
                    13.501915,
                    52.549405
                ]
            },
            "properties": {
                "Lfd Nummer": "FP-001",
                "Name": "Seefelder Straße",
                "Ausstattung": "kein Zaun",
                "Straße": "Seefelder Str. / Hauptstraße 50",
                "PLZ": "13055 Berlin",
                "Bezirk": "Lichtenberg",
                "Flächengröße m²": 1300,
                "Flächeneigentümerin": "BIM",
                "derzeitige Nutzung": "Wegenutzung",
                "An wen wenden": "SPK Lichtenberg",
                "Gartentyp": "Flächenpotential"
            }
        }
    ]
}