{
    "type": "FeatureCollection",
    "name": "DatenbasisKartePL",
    "crs": {
        "type": "name",
        "properties": {
            "name": "urn:ogc:def:crs:EPSG::4326"
        }
    },
    "features": [
        {
            "type": "Feature",
            "geometry": {
                "type": "Point",
                "coordinates": [
                    13.471624,
                    52.514979
                ]
            },
            "properties": {
                "Name": "Parklet Waldeyerstraße 9",
                "Strasse": "Waldeyerstr. 9",
                "PLZ": 10247,
                "Bezirk": "Friedrichshain-Kreuzberg"
            }
        },
        {
            "type": "Feature",
            "geometry": {
                "type": "Point",
                "coordinates": [
                    13.458349,
                    52.508697
                ]
            },
            "properties": {
                "Name": "Parklet Simplonstraße 16",
                "Strasse": "Simplonstr. 16",
                "PLZ": 10245,
                "Bezirk": "Friedrichshain-Kreuzberg"
            }
        },
        {
            "type": "Feature",
            "geometry": {
                "type": "Point",
                "coordinates": [
                    13.405733,
                    52.500558
                ]
            },
            "properties": {
                "Name": "Parklet Wassertorstraße 48",
                "Strasse": "Wassertorstr. 48",
                "PLZ": 10969,
                "Bezirk": "Friedrichshain-Kreuzberg"
            }
        },
        {
            "type": "Feature",
            "geometry": {
                "type": "Point",
                "coordinates": [
                    13.449269,
                    52.52207
                ]
            },
            "properties": {
                "Name": "Parklet Straßmannstraße 17",
                "Strasse": "Straßmannstr. 17",
                "PLZ": 10249,
                "Bezirk": "Friedrichshain-Kreuzberg"
            }
        },
        {
            "type": "Feature",
            "geometry": {
                "type": "Point",
                "coordinates": [
                    13.46419,
                    52.505557
                ]
            },
            "properties": {
                "Name": "Parklet Simplonstraße 54",
                "Strasse": "Simplonstr. 54",
                "PLZ": 10245,
                "Bezirk": "Friedrichshain-Kreuzberg"
            }
        },
        {
            "type": "Feature",
            "geometry": {
                "type": "Point",
                "coordinates": [
                    13.449979,
                    52.525706
                ]
            },
            "properties": {
                "Name": "Parklet Heidenfeldstr. 5-6",
                "Strasse": "Heidenfeldstr. 5-6",
                "PLZ": 10249,
                "Bezirk": "Friedrichshain-Kreuzberg"
            }
        },
        {
            "type": "Feature",
            "geometry": {
                "type": "Point",
                "coordinates": [
                    13.299753,
                    52.511883
                ]
            },
            "properties": {
                "Name": "Parklet Fritschestraße 31",
                "Strasse": "Fritschestr. 31",
                "PLZ": 10585,
                "Bezirk": "Friedrichshain-Kreuzberg"
            }
        },
        {
            "type": "Feature",
            "geometry": {
                "type": "Point",
                "coordinates": [
                    13.467275,
                    52.515977
                ]
            },
            "properties": {
                "Name": "Parklet Rigaer Str. 41",
                "Strasse": "Rigaer Str. 41",
                "PLZ": 10247,
                "Bezirk": "Friedrichshain-Kreuzberg"
            }
        },
        {
            "type": "Feature",
            "geometry": {
                "type": "Point",
                "coordinates": [
                    13.462019,
                    52.506725
                ]
            },
            "properties": {
                "Name": "Parklet gegenüber Simplonstr. 38 ",
                "Strasse": "Simplonstr. 38",
                "PLZ": 10245,
                "Bezirk": "Friedrichshain-Kreuzberg"
            }
        },
        {
            "type": "Feature",
            "geometry": {
                "type": "Point",
                "coordinates": [
                    13.433191,
                    52.504904
                ]
            },
            "properties": {
                "Name": "Parklet Pücklerstr. 51",
                "Strasse": "Pücklerstr. 51",
                "PLZ": 10997,
                "Bezirk": "Friedrichshain-Kreuzberg"
            }
        },
        {
            "type": "Feature",
            "geometry": {
                "type": "Point",
                "coordinates": [
                    null,
                    null
                ]
            },
            "properties": {
                "Name": null,
                "Strasse": "Straßmannstr. 29",
                "PLZ": 10249,
                "Bezirk": null
            }
        },
        {
            "type": "Feature",
            "geometry": {
                "type": "Point",
                "coordinates": [
                    null,
                    null
                ]
            },
            "properties": {
                "Name": null,
                "Strasse": "Papierstr. 11",
                "PLZ": 13409,
                "Bezirk": null
            }
        },
        {
            "type": "Feature",
            "geometry": {
                "type": "Point",
                "coordinates": [
                    null,
                    null
                ]
            },
            "properties": {
                "Name": null,
                "Strasse": "Waldemarstr. 44",
                "PLZ": 10999,
                "Bezirk": null
            }
        },
        {
            "type": "Feature",
            "geometry": {
                "type": "Point",
                "coordinates": [
                    null,
                    null
                ]
            },
            "properties": {
                "Name": null,
                "Strasse": "Fidicinstr. 40",
                "PLZ": 10965,
                "Bezirk": null
            }
        },
        {
            "type": "Feature",
            "geometry": {
                "type": "Point",
                "coordinates": [
                    null,
                    null
                ]
            },
            "properties": {
                "Name": null,
                "Strasse": "Fidicinstr. 4",
                "PLZ": 10965,
                "Bezirk": null
            }
        },
        {
            "type": "Feature",
            "geometry": {
                "type": "Point",
                "coordinates": [
                    null,
                    null
                ]
            },
            "properties": {
                "Name": null,
                "Strasse": "Krumme Str. 58",
                "PLZ": 10627,
                "Bezirk": null
            }
        },
        {
            "type": "Feature",
            "geometry": {
                "type": "Point",
                "coordinates": [
                    null,
                    null
                ]
            },
            "properties": {
                "Name": null,
                "Strasse": "Malplaquetstr. 6",
                "PLZ": 13347,
                "Bezirk": null
            }
        },
        {
            "type": "Feature",
            "geometry": {
                "type": "Point",
                "coordinates": [
                    null,
                    null
                ]
            },
            "properties": {
                "Name": null,
                "Strasse": "Kreutziger Str. 18/19",
                "PLZ": 10247,
                "Bezirk": null
            }
        },
        {
            "type": "Feature",
            "geometry": {
                "type": "Point",
                "coordinates": [
                    null,
                    null
                ]
            },
            "properties": {
                "Name": null,
                "Strasse": "Lasdehner Str. 17 gegenüber",
                "PLZ": 10243,
                "Bezirk": null
            }
        },
        {
            "type": "Feature",
            "geometry": {
                "type": "Point",
                "coordinates": [
                    null,
                    null
                ]
            },
            "properties": {
                "Name": null,
                "Strasse": "Paretzer Str. 7",
                "PLZ": 10713,
                "Bezirk": null
            }
        },
        {
            "type": "Feature",
            "geometry": {
                "type": "Point",
                "coordinates": [
                    null,
                    null
                ]
            },
            "properties": {
                "Name": null,
                "Strasse": "Fichtestr. 2",
                "PLZ": 10967,
                "Bezirk": null
            }
        },
        {
            "type": "Feature",
            "geometry": {
                "type": "Point",
                "coordinates": [
                    null,
                    null
                ]
            },
            "properties": {
                "Name": null,
                "Strasse": "Jahnstr. 4-5",
                "PLZ": 10967,
                "Bezirk": null
            }
        },
        {
            "type": "Feature",
            "geometry": {
                "type": "Point",
                "coordinates": [
                    null,
                    null
                ]
            },
            "properties": {
                "Name": null,
                "Strasse": "Weidenweg 35/37",
                "PLZ": 10249,
                "Bezirk": null
            }
        },
        {
            "type": "Feature",
            "geometry": {
                "type": "Point",
                "coordinates": [
                    null,
                    null
                ]
            },
            "properties": {
                "Name": null,
                "Strasse": "Adolfstr. 27a",
                "PLZ": 13347,
                "Bezirk": null
            }
        },
        {
            "type": "Feature",
            "geometry": {
                "type": "Point",
                "coordinates": [
                    null,
                    null
                ]
            },
            "properties": {
                "Name": null,
                "Strasse": "Stettiner Str. 4",
                "PLZ": 13345,
                "Bezirk": null
            }
        },
        {
            "type": "Feature",
            "geometry": {
                "type": "Point",
                "coordinates": [
                    null,
                    null
                ]
            },
            "properties": {
                "Name": null,
                "Strasse": "Stettiner Str. 38",
                "PLZ": 13345,
                "Bezirk": null
            }
        },
        {
            "type": "Feature",
            "geometry": {
                "type": "Point",
                "coordinates": [
                    null,
                    null
                ]
            },
            "properties": {
                "Name": null,
                "Strasse": "Friedrichstr. 18/19",
                "PLZ": 10969,
                "Bezirk": null
            }
        },
        {
            "type": "Feature",
            "geometry": {
                "type": "Point",
                "coordinates": [
                    null,
                    null
                ]
            },
            "properties": {
                "Name": null,
                "Strasse": "Fritschestr. 29a",
                "PLZ": 10585,
                "Bezirk": null
            }
        },
        {
            "type": "Feature",
            "geometry": {
                "type": "Point",
                "coordinates": [
                    null,
                    null
                ]
            },
            "properties": {
                "Name": null,
                "Strasse": "Kochhannstr. 20/21",
                "PLZ": 10249,
                "Bezirk": null
            }
        },
        {
            "type": "Feature",
            "geometry": {
                "type": "Point",
                "coordinates": [
                    null,
                    null
                ]
            },
            "properties": {
                "Name": null,
                "Strasse": "Kunkelstr. 13",
                "PLZ": 13347,
                "Bezirk": null
            }
        },
        {
            "type": "Feature",
            "geometry": {
                "type": "Point",
                "coordinates": [
                    null,
                    null
                ]
            },
            "properties": {
                "Name": null,
                "Strasse": "Sprengelstr. 15",
                "PLZ": 13353,
                "Bezirk": null
            }
        },
        {
            "type": "Feature",
            "geometry": {
                "type": "Point",
                "coordinates": [
                    null,
                    null
                ]
            },
            "properties": {
                "Name": null,
                "Strasse": "Richard-Sorge-str. 69",
                "PLZ": 10249,
                "Bezirk": null
            }
        },
        {
            "type": "Feature",
            "geometry": {
                "type": "Point",
                "coordinates": [
                    null,
                    null
                ]
            },
            "properties": {
                "Name": null,
                "Strasse": "Niederbarnimstr. 21",
                "PLZ": 10247,
                "Bezirk": null
            }
        },
        {
            "type": "Feature",
            "geometry": {
                "type": "Point",
                "coordinates": [
                    null,
                    null
                ]
            },
            "properties": {
                "Name": null,
                "Strasse": "Manteuffelstr. 72",
                "PLZ": 10999,
                "Bezirk": null
            }
        },
        {
            "type": "Feature",
            "geometry": {
                "type": "Point",
                "coordinates": [
                    null,
                    null
                ]
            },
            "properties": {
                "Name": null,
                "Strasse": "Oranienstr. 183/Rio-Reiser-Platz",
                "PLZ": 10999,
                "Bezirk": null
            }
        },
        {
            "type": "Feature",
            "geometry": {
                "type": "Point",
                "coordinates": [
                    null,
                    null
                ]
            },
            "properties": {
                "Name": null,
                "Strasse": "Cuvrystr. 36",
                "PLZ": 10997,
                "Bezirk": null
            }
        },
        {
            "type": "Feature",
            "geometry": {
                "type": "Point",
                "coordinates": [
                    null,
                    null
                ]
            },
            "properties": {
                "Name": null,
                "Strasse": "Spenerstr. 28",
                "PLZ": 10557,
                "Bezirk": null
            }
        },
        {
            "type": "Feature",
            "geometry": {
                "type": "Point",
                "coordinates": [
                    null,
                    null
                ]
            },
            "properties": {
                "Name": null,
                "Strasse": "Paul-Linke-Ufer 21",
                "PLZ": 10999,
                "Bezirk": null
            }
        },
        {
            "type": "Feature",
            "geometry": {
                "type": "Point",
                "coordinates": [
                    null,
                    null
                ]
            },
            "properties": {
                "Name": null,
                "Strasse": "Mühsamstr. 74",
                "PLZ": 10249,
                "Bezirk": null
            }
        },
        {
            "type": "Feature",
            "geometry": {
                "type": "Point",
                "coordinates": [
                    null,
                    null
                ]
            },
            "properties": {
                "Name": null,
                "Strasse": "Ohlauer Str. 41",
                "PLZ": 10999,
                "Bezirk": null
            }
        },
        {
            "type": "Feature",
            "geometry": {
                "type": "Point",
                "coordinates": [
                    null,
                    null
                ]
            },
            "properties": {
                "Name": null,
                "Strasse": "Petersburger Platz 5",
                "PLZ": 10249,
                "Bezirk": null
            }
        },
        {
            "type": "Feature",
            "geometry": {
                "type": "Point",
                "coordinates": [
                    null,
                    null
                ]
            },
            "properties": {
                "Name": null,
                "Strasse": "Hasestr. 2",
                "PLZ": 10245,
                "Bezirk": null
            }
        },
        {
            "type": "Feature",
            "geometry": {
                "type": "Point",
                "coordinates": [
                    null,
                    null
                ]
            },
            "properties": {
                "Name": null,
                "Strasse": "Oderstr. 34",
                "PLZ": 10247,
                "Bezirk": null
            }
        },
        {
            "type": "Feature",
            "geometry": {
                "type": "Point",
                "coordinates": [
                    null,
                    null
                ]
            },
            "properties": {
                "Name": null,
                "Strasse": "Grüntaler Str. 21",
                "PLZ": 13357,
                "Bezirk": null
            }
        },
        {
            "type": "Feature",
            "geometry": {
                "type": "Point",
                "coordinates": [
                    null,
                    null
                ]
            },
            "properties": {
                "Name": null,
                "Strasse": "Moritzstr. 6-7",
                "PLZ": 10969,
                "Bezirk": null
            }
        },
        {
            "type": "Feature",
            "geometry": {
                "type": "Point",
                "coordinates": [
                    null,
                    null
                ]
            },
            "properties": {
                "Name": null,
                "Strasse": "Strausberger Str. 47",
                "PLZ": 10243,
                "Bezirk": null
            }
        },
        {
            "type": "Feature",
            "geometry": {
                "type": "Point",
                "coordinates": [
                    null,
                    null
                ]
            },
            "properties": {
                "Name": null,
                "Strasse": "Lausitzer Str. 22",
                "PLZ": 10999,
                "Bezirk": null
            }
        },
        {
            "type": "Feature",
            "geometry": {
                "type": "Point",
                "coordinates": [
                    null,
                    null
                ]
            },
            "properties": {
                "Name": null,
                "Strasse": "Lausitzer Str. 10/11",
                "PLZ": 10999,
                "Bezirk": null
            }
        },
        {
            "type": "Feature",
            "geometry": {
                "type": "Point",
                "coordinates": [
                    null,
                    null
                ]
            },
            "properties": {
                "Name": null,
                "Strasse": "Genter Str. 56",
                "PLZ": 13353,
                "Bezirk": null
            }
        },
        {
            "type": "Feature",
            "geometry": {
                "type": "Point",
                "coordinates": [
                    null,
                    null
                ]
            },
            "properties": {
                "Name": null,
                "Strasse": "Heiligenberger Str. 4",
                "PLZ": 10318,
                "Bezirk": null
            }
        },
        {
            "type": "Feature",
            "geometry": {
                "type": "Point",
                "coordinates": [
                    null,
                    null
                ]
            },
            "properties": {
                "Name": null,
                "Strasse": "Demminer Str. 28",
                "PLZ": 13355,
                "Bezirk": null
            }
        },
        {
            "type": "Feature",
            "geometry": {
                "type": "Point",
                "coordinates": [
                    null,
                    null
                ]
            },
            "properties": {
                "Name": null,
                "Strasse": "Gutzkowstr. 11",
                "PLZ": 10827,
                "Bezirk": null
            }
        },
        {
            "type": "Feature",
            "geometry": {
                "type": "Point",
                "coordinates": [
                    null,
                    null
                ]
            },
            "properties": {
                "Name": null,
                "Strasse": "Ebersstr. 66",
                "PLZ": 10827,
                "Bezirk": null
            }
        },
        {
            "type": "Feature",
            "geometry": {
                "type": "Point",
                "coordinates": [
                    null,
                    null
                ]
            },
            "properties": {
                "Name": null,
                "Strasse": "Freienwalder Str. 17",
                "PLZ": 13359,
                "Bezirk": null
            }
        },
        {
            "type": "Feature",
            "geometry": {
                "type": "Point",
                "coordinates": [
                    null,
                    null
                ]
            },
            "properties": {
                "Name": null,
                "Strasse": "Freienwalder Str. 27",
                "PLZ": 13359,
                "Bezirk": null
            }
        },
        {
            "type": "Feature",
            "geometry": {
                "type": "Point",
                "coordinates": [
                    null,
                    null
                ]
            },
            "properties": {
                "Name": null,
                "Strasse": "Lübecker Str. 43",
                "PLZ": 10559,
                "Bezirk": null
            }
        },
        {
            "type": "Feature",
            "geometry": {
                "type": "Point",
                "coordinates": [
                    null,
                    null
                ]
            },
            "properties": {
                "Name": null,
                "Strasse": "Lübecker Str. 42",
                "PLZ": 10559,
                "Bezirk": null
            }
        },
        {
            "type": "Feature",
            "geometry": {
                "type": "Point",
                "coordinates": [
                    null,
                    null
                ]
            },
            "properties": {
                "Name": null,
                "Strasse": "Lübecker Str. 6",
                "PLZ": 10559,
                "Bezirk": null
            }
        },
        {
            "type": "Feature",
            "geometry": {
                "type": "Point",
                "coordinates": [
                    null,
                    null
                ]
            },
            "properties": {
                "Name": "Zweier-Parklet",
                "Strasse": "Koburger Str. 16",
                "PLZ": 10825,
                "Bezirk": null
            }
        },
        {
            "type": "Feature",
            "geometry": {
                "type": "Point",
                "coordinates": [
                    null,
                    null
                ]
            },
            "properties": {
                "Name": null,
                "Strasse": "Graefestr. 35",
                "PLZ": 10967,
                "Bezirk": null
            }
        },
        {
            "type": "Feature",
            "geometry": {
                "type": "Point",
                "coordinates": [
                    null,
                    null
                ]
            },
            "properties": {
                "Name": null,
                "Strasse": "Bouchéstr. 20",
                "PLZ": 12435,
                "Bezirk": null
            }
        },
        {
            "type": "Feature",
            "geometry": {
                "type": "Point",
                "coordinates": [
                    null,
                    null
                ]
            },
            "properties": {
                "Name": null,
                "Strasse": "Togostr. 78",
                "PLZ": 13351,
                "Bezirk": null
            }
        },
        {
            "type": "Feature",
            "geometry": {
                "type": "Point",
                "coordinates": [
                    null,
                    null
                ]
            },
            "properties": {
                "Name": null,
                "Strasse": "Nollendorfstr. 27",
                "PLZ": 10777,
                "Bezirk": null
            }
        },
        {
            "type": "Feature",
            "geometry": {
                "type": "Point",
                "coordinates": [
                    null,
                    null
                ]
            },
            "properties": {
                "Name": null,
                "Strasse": "Kadiner Str. 13",
                "PLZ": 10243,
                "Bezirk": null
            }
        },
        {
            "type": "Feature",
            "geometry": {
                "type": "Point",
                "coordinates": [
                    null,
                    null
                ]
            },
            "properties": {
                "Name": null,
                "Strasse": "Prühßstr. 31",
                "PLZ": 12105,
                "Bezirk": null
            }
        },
        {
            "type": "Feature",
            "geometry": {
                "type": "Point",
                "coordinates": [
                    null,
                    null
                ]
            },
            "properties": {
                "Name": null,
                "Strasse": "Fehmarner Str. 14",
                "PLZ": 13353,
                "Bezirk": null
            }
        },
        {
            "type": "Feature",
            "geometry": {
                "type": "Point",
                "coordinates": [
                    null,
                    null
                ]
            },
            "properties": {
                "Name": null,
                "Strasse": "Falckensteinstr. 22",
                "PLZ": 10997,
                "Bezirk": null
            }
        },
        {
            "type": "Feature",
            "geometry": {
                "type": "Point",
                "coordinates": [
                    null,
                    null
                ]
            },
            "properties": {
                "Name": null,
                "Strasse": "Helmstedter Str. 18",
                "PLZ": 10717,
                "Bezirk": null
            }
        },
        {
            "type": "Feature",
            "geometry": {
                "type": "Point",
                "coordinates": [
                    null,
                    null
                ]
            },
            "properties": {
                "Name": null,
                "Strasse": "Grüntaler Str. 38",
                "PLZ": 13359,
                "Bezirk": null
            }
        },
        {
            "type": "Feature",
            "geometry": {
                "type": "Point",
                "coordinates": [
                    null,
                    null
                ]
            },
            "properties": {
                "Name": null,
                "Strasse": "Borsigstr. 32",
                "PLZ": 10115,
                "Bezirk": null
            }
        },
        {
            "type": "Feature",
            "geometry": {
                "type": "Point",
                "coordinates": [
                    null,
                    null
                ]
            },
            "properties": {
                "Name": null,
                "Strasse": "Behaimstr. 17",
                "PLZ": 10585,
                "Bezirk": null
            }
        },
        {
            "type": "Feature",
            "geometry": {
                "type": "Point",
                "coordinates": [
                    null,
                    null
                ]
            },
            "properties": {
                "Name": null,
                "Strasse": "Körtestr. 19",
                "PLZ": 10967,
                "Bezirk": null
            }
        },
        {
            "type": "Feature",
            "geometry": {
                "type": "Point",
                "coordinates": [
                    null,
                    null
                ]
            },
            "properties": {
                "Name": null,
                "Strasse": "Dolziger Str. 47",
                "PLZ": 10247,
                "Bezirk": null
            }
        },
        {
            "type": "Feature",
            "geometry": {
                "type": "Point",
                "coordinates": [
                    null,
                    null
                ]
            },
            "properties": {
                "Name": null,
                "Strasse": "Stendaler Str. 9",
                "PLZ": 10559,
                "Bezirk": null
            }
        },
        {
            "type": "Feature",
            "geometry": {
                "type": "Point",
                "coordinates": [
                    null,
                    null
                ]
            },
            "properties": {
                "Name": null,
                "Strasse": "Salzufer 18",
                "PLZ": 10587,
                "Bezirk": null
            }
        },
        {
            "type": "Feature",
            "geometry": {
                "type": "Point",
                "coordinates": [
                    null,
                    null
                ]
            },
            "properties": {
                "Name": null,
                "Strasse": "Cranachstr. 7",
                "PLZ": 12157,
                "Bezirk": null
            }
        },
        {
            "type": "Feature",
            "geometry": {
                "type": "Point",
                "coordinates": [
                    null,
                    null
                ]
            },
            "properties": {
                "Name": null,
                "Strasse": "Schreinerstr. 15",
                "PLZ": 10247,
                "Bezirk": null
            }
        },
        {
            "type": "Feature",
            "geometry": {
                "type": "Point",
                "coordinates": [
                    null,
                    null
                ]
            },
            "properties": {
                "Name": "Zweier-Parklet",
                "Strasse": "Jessnerstr. 41",
                "PLZ": 10247,
                "Bezirk": null
            }
        },
        {
            "type": "Feature",
            "geometry": {
                "type": "Point",
                "coordinates": [
                    null,
                    null
                ]
            },
            "properties": {
                "Name": "Zweier-Parklet",
                "Strasse": "Seelingstr. 57",
                "PLZ": 14059,
                "Bezirk": null
            }
        },
        {
            "type": "Feature",
            "geometry": {
                "type": "Point",
                "coordinates": [
                    null,
                    null
                ]
            },
            "properties": {
                "Name": null,
                "Strasse": "Pettenkofer Str. 34",
                "PLZ": 10247,
                "Bezirk": null
            }
        },
        {
            "type": "Feature",
            "geometry": {
                "type": "Point",
                "coordinates": [
                    null,
                    null
                ]
            },
            "properties": {
                "Name": null,
                "Strasse": "Malplaquetstr. 32",
                "PLZ": 13347,
                "Bezirk": null
            }
        },
        {
            "type": "Feature",
            "geometry": {
                "type": "Point",
                "coordinates": [
                    null,
                    null
                ]
            },
            "properties": {
                "Name": null,
                "Strasse": "Hausburgstr. 17",
                "PLZ": 10249,
                "Bezirk": null
            }
        },
        {
            "type": "Feature",
            "geometry": {
                "type": "Point",
                "coordinates": [
                    null,
                    null
                ]
            },
            "properties": {
                "Name": null,
                "Strasse": "Samariterstr. 36",
                "PLZ": 10247,
                "Bezirk": null
            }
        },
        {
            "type": "Feature",
            "geometry": {
                "type": "Point",
                "coordinates": [
                    null,
                    null
                ]
            },
            "properties": {
                "Name": null,
                "Strasse": "Riemannstr. 21",
                "PLZ": 10961,
                "Bezirk": null
            }
        },
        {
            "type": "Feature",
            "geometry": {
                "type": "Point",
                "coordinates": [
                    null,
                    null
                ]
            },
            "properties": {
                "Name": "Dreier-Parklet Cuvrystr. 21",
                "Strasse": "Cuvrystr. 21",
                "PLZ": 10997,
                "Bezirk": null
            }
        },
        {
            "type": "Feature",
            "geometry": {
                "type": "Point",
                "coordinates": [
                    null,
                    null
                ]
            },
            "properties": {
                "Name": "Doppel-Parklet Bellermannstraße 81",
                "Strasse": "Bellermannstr. 81",
                "PLZ": 13357,
                "Bezirk": null
            }
        },
        {
            "type": "Feature",
            "geometry": {
                "type": "Point",
                "coordinates": [
                    null,
                    null
                ]
            },
            "properties": {
                "Name": "Doppel-Parklet Genter Straße 60",
                "Strasse": "Genter Str. 60",
                "PLZ": 13353,
                "Bezirk": null
            }
        },
        {
            "type": "Feature",
            "geometry": {
                "type": "Point",
                "coordinates": [
                    null,
                    null
                ]
            },
            "properties": {
                "Name": "Zweier-Parklet Margaretenstraße 23",
                "Strasse": "Margaretenstr. 23",
                "PLZ": 10317,
                "Bezirk": null
            }
        },
        {
            "type": "Feature",
            "geometry": {
                "type": "Point",
                "coordinates": [
                    null,
                    null
                ]
            },
            "properties": {
                "Name": "Zweier-Parklet Ketschendorfer Weg 11",
                "Strasse": "Ketschendorfer Weg 11",
                "PLZ": 12683,
                "Bezirk": null
            }
        },
        {
            "type": "Feature",
            "geometry": {
                "type": "Point",
                "coordinates": [
                    null,
                    null
                ]
            },
            "properties": {
                "Name": "Parklet Pfarrstraße 93",
                "Strasse": "Pfarrstr. 93",
                "PLZ": 10317,
                "Bezirk": null
            }
        },
        {
            "type": "Feature",
            "geometry": {
                "type": "Point",
                "coordinates": [
                    null,
                    null
                ]
            },
            "properties": {
                "Name": "Parklet Muskauer Straße 11A",
                "Strasse": "Muskauer Str. 11A",
                "PLZ": 10997,
                "Bezirk": null
            }
        },
        {
            "type": "Feature",
            "geometry": {
                "type": "Point",
                "coordinates": [
                    null,
                    null
                ]
            },
            "properties": {
                "Name": "Parklet Fürbringer Straße 21",
                "Strasse": "Fürbringer Str. 21",
                "PLZ": 10961,
                "Bezirk": null
            }
        }
    ]
}