{
    "type": "FeatureCollection",
    "name": "DatenbasisKartePL",
    "crs": {
        "type": "name",
        "properties": {
            "name": "urn:ogc:def:crs:EPSG::4326"
        }
    },
    "features": [
        {
            "type": "Feature",
            "geometry": {
                "type": "Point",
                "coordinates": [
                    13.471624,
                    52.514979
                ]
            },
            "properties": {
                "Lfd Nummer": "PL-001",
                "Name": "Parklet Waldeyerstraße 9",
                "Straße": "Waldeyerstr. 9",
                "PLZ": 10247,
                "Bezirk": "Friedrichshain-Kreuzberg"
            }
        },
        {
            "type": "Feature",
            "geometry": {
                "type": "Point",
                "coordinates": [
                    13.458349,
                    52.508697
                ]
            },
            "properties": {
                "Lfd Nummer": "PL-002",
                "Name": "Parklet Simplonstraße 16",
                "Straße": "Simplonstr. 16",
                "PLZ": 10245,
                "Bezirk": "Friedrichshain-Kreuzberg"
            }
        },
        {
            "type": "Feature",
            "geometry": {
                "type": "Point",
                "coordinates": [
                    13.405733,
                    52.500558
                ]
            },
            "properties": {
                "Lfd Nummer": "PL-003",
                "Name": "Parklet Wassertorstraße 48",
                "Straße": "Wassertorstr. 48",
                "PLZ": 10969,
                "Bezirk": "Friedrichshain-Kreuzberg"
            }
        },
        {
            "type": "Feature",
            "geometry": {
                "type": "Point",
                "coordinates": [
                    13.449269,
                    52.52207
                ]
            },
            "properties": {
                "Lfd Nummer": "PL-004",
                "Name": "Parklet Straßmannstraße 17",
                "Straße": "Straßmannstr. 17",
                "PLZ": 10249,
                "Bezirk": "Friedrichshain-Kreuzberg"
            }
        },
        {
            "type": "Feature",
            "geometry": {
                "type": "Point",
                "coordinates": [
                    13.46419,
                    52.505557
                ]
            },
            "properties": {
                "Lfd Nummer": "PL-005",
                "Name": "Parklet Simplonstraße 54",
                "Straße": "Simplonstr. 54",
                "PLZ": 10245,
                "Bezirk": "Friedrichshain-Kreuzberg"
            }
        },
        {
            "type": "Feature",
            "geometry": {
                "type": "Point",
                "coordinates": [
                    13.449979,
                    52.525706
                ]
            },
            "properties": {
                "Lfd Nummer": "PL-006",
                "Name": "Parklet Heidenfeldstr. 5-6",
                "Straße": "Heidenfeldstr. 5-6",
                "PLZ": 10249,
                "Bezirk": "Friedrichshain-Kreuzberg"
            }
        },
        {
            "type": "Feature",
            "geometry": {
                "type": "Point",
                "coordinates": [
                    13.299753,
                    52.511883
                ]
            },
            "properties": {
                "Lfd Nummer": "PL-007",
                "Name": "Parklet Fritschestraße 31",
                "Straße": "Fritschestr. 31",
                "PLZ": 10585,
                "Bezirk": "Friedrichshain-Kreuzberg"
            }
        },
        {
            "type": "Feature",
            "geometry": {
                "type": "Point",
                "coordinates": [
                    13.467275,
                    52.515977
                ]
            },
            "properties": {
                "Lfd Nummer": "PL-008",
                "Name": "Parklet Rigaer Str. 41",
                "Straße": "Rigaer Str. 41",
                "PLZ": 10247,
                "Bezirk": "Friedrichshain-Kreuzberg"
            }
        },
        {
            "type": "Feature",
            "geometry": {
                "type": "Point",
                "coordinates": [
                    13.462019,
                    52.506725
                ]
            },
            "properties": {
                "Lfd Nummer": "PL-009",
                "Name": "Parklet gegenüber Simplonstr. 38 ",
                "Straße": "Simplonstr. 38",
                "PLZ": 10245,
                "Bezirk": "Friedrichshain-Kreuzberg"
            }
        },
        {
            "type": "Feature",
            "geometry": {
                "type": "Point",
                "coordinates": [
                    13.433191,
                    52.504904
                ]
            },
            "properties": {
                "Lfd Nummer": "PL-010",
                "Name": "Parklet Pücklerstr. 51",
                "Straße": "Pücklerstr. 51",
                "PLZ": 10997,
                "Bezirk": "Friedrichshain-Kreuzberg"
            }
        },
        {
            "type": "Feature",
            "geometry": {
                "type": "Point",
                "coordinates": [
                    13.451808,
                    52.522695
                ]
            },
            "properties": {
                "Lfd Nummer": "PL-011",
                "Name": "Parklet Straßmannstr. 29",
                "Straße": "Straßmannstr. 29",
                "PLZ": 10249,
                "Bezirk": "Friedrichshain-Kreuzberg"
            }
        },
        {
            "type": "Feature",
            "geometry": {
                "type": "Point",
                "coordinates": [
                    13.379452,
                    52.564536
                ]
            },
            "properties": {
                "Lfd Nummer": "PL-012",
                "Name": "Parklet Papierstr. 11",
                "Straße": "Papierstr. 11",
                "PLZ": 13409,
                "Bezirk": "Mitte"
            }
        },
        {
            "type": "Feature",
            "geometry": {
                "type": "Point",
                "coordinates": [
                    13.420242,
                    52.503345
                ]
            },
            "properties": {
                "Lfd Nummer": "PL-013",
                "Name": "Parklet Waldemarstr. 44",
                "Straße": "Waldemarstr. 44",
                "PLZ": 10999,
                "Bezirk": "Friedrichshain-Kreuzberg"
            }
        },
        {
            "type": "Feature",
            "geometry": {
                "type": "Point",
                "coordinates": [
                    13.388645,
                    52.487135
                ]
            },
            "properties": {
                "Lfd Nummer": "PL-014",
                "Name": "Parklet Fidicinstr. 40",
                "Straße": "Fidicinstr. 40",
                "PLZ": 10965,
                "Bezirk": "Friedrichshain-Kreuzberg"
            }
        },
        {
            "type": "Feature",
            "geometry": {
                "type": "Point",
                "coordinates": [
                    13.388292,
                    52.487111
                ]
            },
            "properties": {
                "Lfd Nummer": "PL-015",
                "Name": "Parklet Fidicinstr. 4",
                "Straße": "Fidicinstr. 4",
                "PLZ": 10965,
                "Bezirk": "Friedrichshain-Kreuzberg"
            }
        },
        {
            "type": "Feature",
            "geometry": {
                "type": "Point",
                "coordinates": [
                    13.309484,
                    52.507657
                ]
            },
            "properties": {
                "Lfd Nummer": "PL-016",
                "Name": "Parklet Krumme Str. 58",
                "Straße": "Krumme Str. 58",
                "PLZ": 10627,
                "Bezirk": "Charlottenburg-Wilmersdorf"
            }
        },
        {
            "type": "Feature",
            "geometry": {
                "type": "Point",
                "coordinates": [
                    13.361241,
                    52.54981
                ]
            },
            "properties": {
                "Lfd Nummer": "PL-017",
                "Name": "Parklet Malplaquetstr. 6",
                "Straße": "Malplaquetstr. 6",
                "PLZ": 13347,
                "Bezirk": "Mitte"
            }
        },
        {
            "type": "Feature",
            "geometry": {
                "type": "Point",
                "coordinates": [
                    13.459713,
                    52.512876
                ]
            },
            "properties": {
                "Lfd Nummer": "PL-018",
                "Name": "Parklet  Kreutziger Str. 18/19",
                "Straße": "Kreutziger Str. 18/19",
                "PLZ": 10247,
                "Bezirk": "Friedrichshain-Kreuzberg"
            }
        },
        {
            "type": "Feature",
            "geometry": {
                "type": "Point",
                "coordinates": [
                    13.44893,
                    52.514653
                ]
            },
            "properties": {
                "Lfd Nummer": "PL-019",
                "Name": "Parklet gegenüber Lasdehner Str. 17",
                "Straße": "Lasdehner Str. 17 gegenüber",
                "PLZ": 10243,
                "Bezirk": "Friedrichshain-Kreuzberg"
            }
        },
        {
            "type": "Feature",
            "geometry": {
                "type": "Point",
                "coordinates": [
                    13.317171,
                    52.481518
                ]
            },
            "properties": {
                "Lfd Nummer": "PL-020",
                "Name": "Parklet Paretzer Str. 7",
                "Straße": "Paretzer Str. 7",
                "PLZ": 10713,
                "Bezirk": "Charlottenburg-Wilmersdorf"
            }
        },
        {
            "type": "Feature",
            "geometry": {
                "type": "Point",
                "coordinates": [
                    13.413015,
                    52.491068
                ]
            },
            "properties": {
                "Lfd Nummer": "PL-021",
                "Name": "Parklet Fichtestr. 2",
                "Straße": "Fichtestr. 2",
                "PLZ": 10967,
                "Bezirk": "Friedrichshain-Kreuzberg"
            }
        },
        {
            "type": "Feature",
            "geometry": {
                "type": "Point",
                "coordinates": [
                    13.419521,
                    52.489039
                ]
            },
            "properties": {
                "Lfd Nummer": "PL-022",
                "Name": "Parklet Jahnstr. 4-5",
                "Straße": "Jahnstr. 4-5",
                "PLZ": 10967,
                "Bezirk": "Friedrichshain-Kreuzberg"
            }
        },
        {
            "type": "Feature",
            "geometry": {
                "type": "Point",
                "coordinates": [
                    13.450324,
                    52.517992
                ]
            },
            "properties": {
                "Lfd Nummer": "PL-023",
                "Name": "Parklet Weidenweg 35/37",
                "Straße": "Weidenweg 35/37",
                "PLZ": 10249,
                "Bezirk": "Friedrichshain-Kreuzberg"
            }
        },
        {
            "type": "Feature",
            "geometry": {
                "type": "Point",
                "coordinates": [
                    13.366815,
                    52.546862
                ]
            },
            "properties": {
                "Lfd Nummer": "PL-024",
                "Name": "Parklet Adolfstr. 27a",
                "Straße": "Adolfstr. 27a",
                "PLZ": 13347,
                "Bezirk": "Mitte"
            }
        },
        {
            "type": "Feature",
            "geometry": {
                "type": "Point",
                "coordinates": [
                    13.384453,
                    52.55195
                ]
            },
            "properties": {
                "Lfd Nummer": "PL-025",
                "Name": "Parklet Stettiner Str. 4",
                "Straße": "Stettiner Str. 4",
                "PLZ": 13345,
                "Bezirk": "Mitte"
            }
        },
        {
            "type": "Feature",
            "geometry": {
                "type": "Point",
                "coordinates": [
                    13.388025,
                    52.554426
                ]
            },
            "properties": {
                "Lfd Nummer": "PL-026",
                "Name": "Parklet Stettiner Str. 38",
                "Straße": "Stettiner Str. 38",
                "PLZ": 13345,
                "Bezirk": "Mitte"
            }
        },
        {
            "type": "Feature",
            "geometry": {
                "type": "Point",
                "coordinates": [
                    13.39119,
                    52.502911
                ]
            },
            "properties": {
                "Lfd Nummer": "PL-027",
                "Name": "Parklet Friedrichstr. 18/19",
                "Straße": "Friedrichstr. 18/19",
                "PLZ": 10969,
                "Bezirk": "Mitte"
            }
        },
        {
            "type": "Feature",
            "geometry": {
                "type": "Point",
                "coordinates": [
                    13.299738,
                    52.511874
                ]
            },
            "properties": {
                "Lfd Nummer": "PL-028",
                "Name": "Parklet Fritschestr. 29a",
                "Straße": "Fritschestr. 29a",
                "PLZ": 10585,
                "Bezirk": "Charlottenburg-Wilmersdorf"
            }
        },
        {
            "type": "Feature",
            "geometry": {
                "type": "Point",
                "coordinates": [
                    13.453244,
                    52.525437
                ]
            },
            "properties": {
                "Lfd Nummer": "PL-029",
                "Name": "Parklet Kochhannstr. 20/21",
                "Straße": "Kochhannstr. 20/21",
                "PLZ": 10249,
                "Bezirk": "Friedrichshain-Kreuzberg"
            }
        },
        {
            "type": "Feature",
            "geometry": {
                "type": "Point",
                "coordinates": [
                    13.3731,
                    52.542762
                ]
            },
            "properties": {
                "Lfd Nummer": "PL-030",
                "Name": "Parklet Kunkelstr. 13",
                "Straße": "Kunkelstr. 13",
                "PLZ": 13347,
                "Bezirk": "Mitte"
            }
        },
        {
            "type": "Feature",
            "geometry": {
                "type": "Point",
                "coordinates": [
                    13.354777,
                    52.541777
                ]
            },
            "properties": {
                "Lfd Nummer": "PL-031",
                "Name": "Parklet Sprengelstr. 15",
                "Straße": "Sprengelstr. 15",
                "PLZ": 13353,
                "Bezirk": "Mitte"
            }
        },
        {
            "type": "Feature",
            "geometry": {
                "type": "Point",
                "coordinates": [
                    13.446762,
                    52.521052
                ]
            },
            "properties": {
                "Lfd Nummer": "PL-032",
                "Name": "Parklet Richard-Sorge-Str. 69",
                "Straße": "Richard-Sorge-Str. 69",
                "PLZ": 10249,
                "Bezirk": "Friedrichshain-Kreuzberg"
            }
        },
        {
            "type": "Feature",
            "geometry": {
                "type": "Point",
                "coordinates": [
                    13.45913,
                    52.514005
                ]
            },
            "properties": {
                "Lfd Nummer": "PL-033",
                "Name": "Parklet Niederbarnimstr. 21",
                "Straße": "Niederbarnimstr. 21",
                "PLZ": 10247,
                "Bezirk": "Friedrichshain-Kreuzberg"
            }
        },
        {
            "type": "Feature",
            "geometry": {
                "type": "Point",
                "coordinates": [
                    13.424234,
                    52.496716
                ]
            },
            "properties": {
                "Lfd Nummer": "PL-034",
                "Name": "Parklet Manteuffelstr. 72",
                "Straße": "Manteuffelstr. 72",
                "PLZ": 10999,
                "Bezirk": "Friedrichshain-Kreuzberg"
            }
        },
        {
            "type": "Feature",
            "geometry": {
                "type": "Point",
                "coordinates": [
                    13.422867,
                    52.500207
                ]
            },
            "properties": {
                "Lfd Nummer": "PL-035",
                "Name": "Parklet Oranienstr. 183/Rio-Reiser-Platz",
                "Straße": "Oranienstr. 183/Rio-Reiser-Platz",
                "PLZ": 10999,
                "Bezirk": "Friedrichshain-Kreuzberg"
            }
        },
        {
            "type": "Feature",
            "geometry": {
                "type": "Point",
                "coordinates": [
                    13.443338,
                    52.496997
                ]
            },
            "properties": {
                "Lfd Nummer": "PL-036",
                "Name": "Parklet Cuvrystr. 36",
                "Straße": "Cuvrystr. 36",
                "PLZ": 10997,
                "Bezirk": "Friedrichshain-Kreuzberg"
            }
        },
        {
            "type": "Feature",
            "geometry": {
                "type": "Point",
                "coordinates": [
                    13.353211,
                    52.521785
                ]
            },
            "properties": {
                "Lfd Nummer": "PL-037",
                "Name": "Parklet Spenerstr. 28",
                "Straße": "Spenerstr. 28",
                "PLZ": 10557,
                "Bezirk": "Mitte"
            }
        },
        {
            "type": "Feature",
            "geometry": {
                "type": "Point",
                "coordinates": [
                    13.429293,
                    52.493689
                ]
            },
            "properties": {
                "Lfd Nummer": "PL-038",
                "Name": "Parklet Paul-Linke-Ufer 21",
                "Straße": "Paul-Linke-Ufer 21",
                "PLZ": 10999,
                "Bezirk": "Friedrichshain-Kreuzberg"
            }
        },
        {
            "type": "Feature",
            "geometry": {
                "type": "Point",
                "coordinates": [
                    13.454341,
                    52.521075
                ]
            },
            "properties": {
                "Lfd Nummer": "PL-039",
                "Name": "Parklet Mühsamstr. 74",
                "Straße": "Mühsamstr. 74",
                "PLZ": 10249,
                "Bezirk": "Friedrichshain-Kreuzberg"
            }
        },
        {
            "type": "Feature",
            "geometry": {
                "type": "Point",
                "coordinates": [
                    13.429297,
                    52.494463
                ]
            },
            "properties": {
                "Lfd Nummer": "PL-040",
                "Name": "Parklet Ohlauer Str. 41",
                "Straße": "Ohlauer Str. 41",
                "PLZ": 10999,
                "Bezirk": "Friedrichshain-Kreuzberg"
            }
        },
        {
            "type": "Feature",
            "geometry": {
                "type": "Point",
                "coordinates": [
                    13.450057,
                    52.521058
                ]
            },
            "properties": {
                "Lfd Nummer": "PL-041",
                "Name": "Parklet Petersburger Platz 5",
                "Straße": "Petersburger Platz 5",
                "PLZ": 10249,
                "Bezirk": "Friedrichshain-Kreuzberg"
            }
        },
        {
            "type": "Feature",
            "geometry": {
                "type": "Point",
                "coordinates": [
                    13.461461,
                    52.506741
                ]
            },
            "properties": {
                "Lfd Nummer": "PL-042",
                "Name": "Parklet Haasestr. 2",
                "Straße": "Haasestr. 2",
                "PLZ": 10245,
                "Bezirk": "Friedrichshain-Kreuzberg"
            }
        },
        {
            "type": "Feature",
            "geometry": {
                "type": "Point",
                "coordinates": [
                    13.472776,
                    52.50949
                ]
            },
            "properties": {
                "Lfd Nummer": "PL-043",
                "Name": "Parklet Oderstr. 34",
                "Straße": "Oderstr. 34",
                "PLZ": 10247,
                "Bezirk": "Friedrichshain-Kreuzberg"
            }
        },
        {
            "type": "Feature",
            "geometry": {
                "type": "Point",
                "coordinates": [
                    13.388951,
                    52.553532
                ]
            },
            "properties": {
                "Lfd Nummer": "PL-044",
                "Name": "Parklet Grüntaler Str. 21",
                "Straße": "Grüntaler Str. 21",
                "PLZ": 13357,
                "Bezirk": "Mitte"
            }
        },
        {
            "type": "Feature",
            "geometry": {
                "type": "Point",
                "coordinates": [
                    13.4057,
                    52.49934
                ]
            },
            "properties": {
                "Lfd Nummer": "PL-045",
                "Name": "Parklet Moritzstr. 6-7",
                "Straße": "Moritzstr. 6-7",
                "PLZ": 10969,
                "Bezirk": "Friedrichshain-Kreuzberg"
            }
        },
        {
            "type": "Feature",
            "geometry": {
                "type": "Point",
                "coordinates": [
                    13.432555,
                    52.522017
                ]
            },
            "properties": {
                "Lfd Nummer": "PL-046",
                "Name": "Parklet Strausberger Str. 47",
                "Straße": "Strausberger Str. 47",
                "PLZ": 10243,
                "Bezirk": "Friedrichshain-Kreuzberg"
            }
        },
        {
            "type": "Feature",
            "geometry": {
                "type": "Point",
                "coordinates": [
                    13.427044,
                    52.495672
                ]
            },
            "properties": {
                "Lfd Nummer": "PL-047",
                "Name": "Parklet Lausitzer Str. 22",
                "Straße": "Lausitzer Str. 22",
                "PLZ": 10999,
                "Bezirk": "Friedrichshain-Kreuzberg"
            }
        },
        {
            "type": "Feature",
            "geometry": {
                "type": "Point",
                "coordinates": [
                    13.428685,
                    52.497287
                ]
            },
            "properties": {
                "Lfd Nummer": "PL-048",
                "Name": "Parklet Lausitzer Str. 10/11",
                "Straße": "Lausitzer Str. 10/11",
                "PLZ": 10999,
                "Bezirk": "Friedrichshain-Kreuzberg"
            }
        },
        {
            "type": "Feature",
            "geometry": {
                "type": "Point",
                "coordinates": [
                    13.352767,
                    52.548092
                ]
            },
            "properties": {
                "Lfd Nummer": "PL-049",
                "Name": "Parklet Genter Str. 56",
                "Straße": "Genter Str. 56",
                "PLZ": 13353,
                "Bezirk": "Mitte"
            }
        },
        {
            "type": "Feature",
            "geometry": {
                "type": "Point",
                "coordinates": [
                    13.522828,
                    52.480978
                ]
            },
            "properties": {
                "Lfd Nummer": "PL-050",
                "Name": "Parklet Heiligenberger Str. 4",
                "Straße": "Heiligenberger Str. 4",
                "PLZ": 10318,
                "Bezirk": "Treptow-Köpenick"
            }
        },
        {
            "type": "Feature",
            "geometry": {
                "type": "Point",
                "coordinates": [
                    13.396166,
                    52.541768
                ]
            },
            "properties": {
                "Lfd Nummer": "PL-051",
                "Name": "Parklet Demminer Str. 28",
                "Straße": "Demminer Str. 28",
                "PLZ": 13355,
                "Bezirk": "Mitte"
            }
        },
        {
            "type": "Feature",
            "geometry": {
                "type": "Point",
                "coordinates": [
                    13.347782,
                    52.479679
                ]
            },
            "properties": {
                "Lfd Nummer": "PL-052",
                "Name": "Parklet Gutzkowstr. 11",
                "Straße": "Gutzkowstr. 11",
                "PLZ": 10827,
                "Bezirk": "Tempelhof-Schöneberg"
            }
        },
        {
            "type": "Feature",
            "geometry": {
                "type": "Point",
                "coordinates": [
                    13.349873,
                    52.47938
                ]
            },
            "properties": {
                "Lfd Nummer": "PL-053",
                "Name": "Parklet Ebersstr. 66",
                "Straße": "Ebersstr. 66",
                "PLZ": 10827,
                "Bezirk": "Tempelhof-Schöneberg"
            }
        },
        {
            "type": "Feature",
            "geometry": {
                "type": "Point",
                "coordinates": [
                    13.39223,
                    52.558121
                ]
            },
            "properties": {
                "Lfd Nummer": "PL-054",
                "Name": "Parklet Freienwalder Str. 17",
                "Straße": "Freienwalder Str. 17",
                "PLZ": 13359,
                "Bezirk": "Mitte"
            }
        },
        {
            "type": "Feature",
            "geometry": {
                "type": "Point",
                "coordinates": [
                    13.391501,
                    52.557394
                ]
            },
            "properties": {
                "Lfd Nummer": "PL-055",
                "Name": "Parklet Freienwalder Str. 27",
                "Straße": "Freienwalder Str. 27",
                "PLZ": 13359,
                "Bezirk": "Mitte"
            }
        },
        {
            "type": "Feature",
            "geometry": {
                "type": "Point",
                "coordinates": [
                    13.345326,
                    52.527997
                ]
            },
            "properties": {
                "Lfd Nummer": "PL-056",
                "Name": "Parklet Lübecker Str. 43",
                "Straße": "Lübecker Str. 43",
                "PLZ": 10559,
                "Bezirk": "Mitte"
            }
        },
        {
            "type": "Feature",
            "geometry": {
                "type": "Point",
                "coordinates": [
                    13.34531,
                    52.528166
                ]
            },
            "properties": {
                "Lfd Nummer": "PL-057",
                "Name": "Parklet Lübecker Str. 42",
                "Straße": "Lübecker Str. 42",
                "PLZ": 10559,
                "Bezirk": "Mitte"
            }
        },
        {
            "type": "Feature",
            "geometry": {
                "type": "Point",
                "coordinates": [
                    13.345443,
                    52.527575
                ]
            },
            "properties": {
                "Lfd Nummer": "PL-058",
                "Name": "Parklet Lübecker Str. 6",
                "Straße": "Lübecker Str. 6",
                "PLZ": 10559,
                "Bezirk": "Mitte"
            }
        },
        {
            "type": "Feature",
            "geometry": {
                "type": "Point",
                "coordinates": [
                    13.346337,
                    52.481123
                ]
            },
            "properties": {
                "Lfd Nummer": "PL-059",
                "Name": "Zweier-Parklet Koburger Str. 16",
                "Straße": "Koburger Str. 16",
                "PLZ": 10825,
                "Bezirk": "Tempelhof-Schöneberg"
            }
        },
        {
            "type": "Feature",
            "geometry": {
                "type": "Point",
                "coordinates": [
                    13.415327,
                    52.489914
                ]
            },
            "properties": {
                "Lfd Nummer": "PL-060",
                "Name": "Parklet Graefestr. 35",
                "Straße": "Graefestr. 35",
                "PLZ": 10967,
                "Bezirk": "Friedrichshain-Kreuzberg"
            }
        },
        {
            "type": "Feature",
            "geometry": {
                "type": "Point",
                "coordinates": [
                    13.448896,
                    52.49053
                ]
            },
            "properties": {
                "Lfd Nummer": "PL-061",
                "Name": "Parklet Bouchéstr. 20",
                "Straße": "Bouchéstr. 20",
                "PLZ": 12435,
                "Bezirk": "Treptow-Köpenick"
            }
        },
        {
            "type": "Feature",
            "geometry": {
                "type": "Point",
                "coordinates": [
                    13.347225,
                    52.549385
                ]
            },
            "properties": {
                "Lfd Nummer": "PL-062",
                "Name": "Parklet Togostr. 78",
                "Straße": "Togostr. 78",
                "PLZ": 13351,
                "Bezirk": "Mitte"
            }
        },
        {
            "type": "Feature",
            "geometry": {
                "type": "Point",
                "coordinates": [
                    13.351543,
                    52.497697
                ]
            },
            "properties": {
                "Lfd Nummer": "PL-063",
                "Name": "Parklet Nollendorfstr. 27",
                "Straße": "Nollendorfstr. 27",
                "PLZ": 10777,
                "Bezirk": "Tempelhof-Schöneberg"
            }
        },
        {
            "type": "Feature",
            "geometry": {
                "type": "Point",
                "coordinates": [
                    13.450044,
                    52.513143
                ]
            },
            "properties": {
                "Lfd Nummer": "PL-064",
                "Name": "Parklet Kadiner Str. 13",
                "Straße": "Kadiner Str. 13",
                "PLZ": 10243,
                "Bezirk": "Friedrichshain-Kreuzberg"
            }
        },
        {
            "type": "Feature",
            "geometry": {
                "type": "Point",
                "coordinates": [
                    13.383353,
                    52.443109
                ]
            },
            "properties": {
                "Lfd Nummer": "PL-065",
                "Name": "Parklet Prühßstr. 31",
                "Straße": "Prühßstr. 31",
                "PLZ": 12105,
                "Bezirk": "Tempelhof-Schöneberg"
            }
        },
        {
            "type": "Feature",
            "geometry": {
                "type": "Point",
                "coordinates": [
                    13.350284,
                    52.539702
                ]
            },
            "properties": {
                "Lfd Nummer": "PL-066",
                "Name": "Parklet Fehmarner Str. 14",
                "Straße": "Fehmarner Str. 14",
                "PLZ": 13353,
                "Bezirk": "Mitte"
            }
        },
        {
            "type": "Feature",
            "geometry": {
                "type": "Point",
                "coordinates": [
                    13.440629,
                    52.496893
                ]
            },
            "properties": {
                "Lfd Nummer": "PL-067",
                "Name": "Parklet Falckensteinstr. 22",
                "Straße": "Falckensteinstr. 22",
                "PLZ": 10997,
                "Bezirk": "Friedrichshain-Kreuzberg"
            }
        },
        {
            "type": "Feature",
            "geometry": {
                "type": "Point",
                "coordinates": [
                    13.334408,
                    52.488157
                ]
            },
            "properties": {
                "Lfd Nummer": "PL-068",
                "Name": "Parklet Helmstedter Str. 18",
                "Straße": "Helmstedter Str. 18",
                "PLZ": 10717,
                "Bezirk": "Charlottenburg-Wilmersdorf"
            }
        },
        {
            "type": "Feature",
            "geometry": {
                "type": "Point",
                "coordinates": [
                    13.393303,
                    52.556061
                ]
            },
            "properties": {
                "Lfd Nummer": "PL-069",
                "Name": "Parklet Grüntaler Str. 38",
                "Straße": "Grüntaler Str. 38",
                "PLZ": 13359,
                "Bezirk": "Mitte"
            }
        },
        {
            "type": "Feature",
            "geometry": {
                "type": "Point",
                "coordinates": [
                    13.390553,
                    52.528771
                ]
            },
            "properties": {
                "Lfd Nummer": "PL-070",
                "Name": "Parklet Borsigstr. 32",
                "Straße": "Borsigstr. 32",
                "PLZ": 10115,
                "Bezirk": "Mitte"
            }
        },
        {
            "type": "Feature",
            "geometry": {
                "type": "Point",
                "coordinates": [
                    13.303951,
                    52.516541
                ]
            },
            "properties": {
                "Lfd Nummer": "PL-071",
                "Name": "Parklet Behaimstr. 17",
                "Straße": "Behaimstr. 17",
                "PLZ": 10585,
                "Bezirk": "Charlottenburg-Wilmersdorf"
            }
        },
        {
            "type": "Feature",
            "geometry": {
                "type": "Point",
                "coordinates": [
                    13.409802,
                    52.490364
                ]
            },
            "properties": {
                "Lfd Nummer": "PL-072",
                "Name": "Parklet Körtestr. 19",
                "Straße": "Körtestr. 19",
                "PLZ": 10967,
                "Bezirk": "Friedrichshain-Kreuzberg"
            }
        },
        {
            "type": "Feature",
            "geometry": {
                "type": "Point",
                "coordinates": [
                    13.465361,
                    52.519372
                ]
            },
            "properties": {
                "Lfd Nummer": "PL-073",
                "Name": "Parklet Dolziger Str. 47",
                "Straße": "Dolziger Str. 47",
                "PLZ": 10247,
                "Bezirk": "Friedrichshain-Kreuzberg"
            }
        },
        {
            "type": "Feature",
            "geometry": {
                "type": "Point",
                "coordinates": [
                    13.34788,
                    52.532897
                ]
            },
            "properties": {
                "Lfd Nummer": "PL-074",
                "Name": "Parklet Stendaler Str. 9",
                "Straße": "Stendaler Str. 9",
                "PLZ": 10559,
                "Bezirk": "Mitte"
            }
        },
        {
            "type": "Feature",
            "geometry": {
                "type": "Point",
                "coordinates": [
                    13.321419,
                    52.518745
                ]
            },
            "properties": {
                "Lfd Nummer": "PL-075",
                "Name": "Parklet Salzufer 18",
                "Straße": "Salzufer 18",
                "PLZ": 10587,
                "Bezirk": "Charlottenburg-Wilmersdorf"
            }
        },
        {
            "type": "Feature",
            "geometry": {
                "type": "Point",
                "coordinates": [
                    13.342058,
                    52.468065
                ]
            },
            "properties": {
                "Lfd Nummer": "PL-076",
                "Name": "Parklet Cranachstr. 7",
                "Straße": "Cranachstr. 7",
                "PLZ": 12157,
                "Bezirk": "Tempelhof-Schöneberg"
            }
        },
        {
            "type": "Feature",
            "geometry": {
                "type": "Point",
                "coordinates": [
                    13.466427,
                    52.517141
                ]
            },
            "properties": {
                "Lfd Nummer": "PL-077",
                "Name": "Parklet Schreinerstr. 15",
                "Straße": "Schreinerstr. 15",
                "PLZ": 10247,
                "Bezirk": "Friedrichshain-Kreuzberg"
            }
        },
        {
            "type": "Feature",
            "geometry": {
                "type": "Point",
                "coordinates": [
                    13.471362,
                    52.510706
                ]
            },
            "properties": {
                "Lfd Nummer": "PL-078",
                "Name": "Zweier-Parklet Jessnerstr. 41",
                "Straße": "Jessnerstr. 41",
                "PLZ": 10247,
                "Bezirk": "Friedrichshain-Kreuzberg"
            }
        },
        {
            "type": "Feature",
            "geometry": {
                "type": "Point",
                "coordinates": [
                    13.288509,
                    52.515206
                ]
            },
            "properties": {
                "Lfd Nummer": "PL-079",
                "Name": "Zweier-Parklet Seelingstr. 57",
                "Straße": "Seelingstr. 57",
                "PLZ": 14059,
                "Bezirk": "Charlottenburg-Wilmersdorf"
            }
        },
        {
            "type": "Feature",
            "geometry": {
                "type": "Point",
                "coordinates": [
                    13.47043,
                    52.519058
                ]
            },
            "properties": {
                "Lfd Nummer": "PL-080",
                "Name": "Parklet Pettenkofer Str. 34",
                "Straße": "Pettenkofer Str. 34",
                "PLZ": 10247,
                "Bezirk": "Friedrichshain-Kreuzberg"
            }
        },
        {
            "type": "Feature",
            "geometry": {
                "type": "Point",
                "coordinates": [
                    13.358972,
                    52.551001
                ]
            },
            "properties": {
                "Lfd Nummer": "PL-081",
                "Name": "Parklet Malplaquetstr. 32",
                "Straße": "Malplaquetstr. 32",
                "PLZ": 13347,
                "Bezirk": "Mitte"
            }
        },
        {
            "type": "Feature",
            "geometry": {
                "type": "Point",
                "coordinates": [
                    13.454191,
                    52.524669
                ]
            },
            "properties": {
                "Lfd Nummer": "PL-082",
                "Name": "Parklet Hausburgstr. 17",
                "Straße": "Hausburgstr. 17",
                "PLZ": 10249,
                "Bezirk": "Friedrichshain-Kreuzberg"
            }
        },
        {
            "type": "Feature",
            "geometry": {
                "type": "Point",
                "coordinates": [
                    13.464775,
                    52.515799
                ]
            },
            "properties": {
                "Lfd Nummer": "PL-083",
                "Name": "Parklet Samariterstr. 36",
                "Straße": "Samariterstr. 36",
                "PLZ": 10247,
                "Bezirk": "Friedrichshain-Kreuzberg"
            }
        },
        {
            "type": "Feature",
            "geometry": {
                "type": "Point",
                "coordinates": [
                    13.391158,
                    52.490647
                ]
            },
            "properties": {
                "Lfd Nummer": "PL-084",
                "Name": "Parklet Riemannstr. 21",
                "Straße": "Riemannstr. 21",
                "PLZ": 10961,
                "Bezirk": "Friedrichshain-Kreuzberg"
            }
        },
        {
            "type": "Feature",
            "geometry": {
                "type": "Point",
                "coordinates": [
                    13.443453,
                    52.497255
                ]
            },
            "properties": {
                "Lfd Nummer": "PL-085",
                "Name": "Dreier-Parklet Cuvrystr. 21",
                "Straße": "Cuvrystr. 21",
                "PLZ": 10997,
                "Bezirk": "Friedrichshain-Kreuzberg"
            }
        },
        {
            "type": "Feature",
            "geometry": {
                "type": "Point",
                "coordinates": [
                    13.38788,
                    52.552482
                ]
            },
            "properties": {
                "Lfd Nummer": "PL-086",
                "Name": "Doppel-Parklet Bellermannstraße 81",
                "Straße": "Bellermannstr. 81",
                "PLZ": 13357,
                "Bezirk": "Mitte"
            }
        },
        {
            "type": "Feature",
            "geometry": {
                "type": "Point",
                "coordinates": [
                    13.352197,
                    52.548446
                ]
            },
            "properties": {
                "Lfd Nummer": "PL-087",
                "Name": "Doppel-Parklet Genter Straße 60",
                "Straße": "Genter Str. 60",
                "PLZ": 13353,
                "Bezirk": "Mitte"
            }
        },
        {
            "type": "Feature",
            "geometry": {
                "type": "Point",
                "coordinates": [
                    13.498498,
                    52.507681
                ]
            },
            "properties": {
                "Lfd Nummer": "PL-088",
                "Name": "Zweier-Parklet Margaretenstraße 23",
                "Straße": "Margaretenstr. 23",
                "PLZ": 10317,
                "Bezirk": "Lichtenberg"
            }
        },
        {
            "type": "Feature",
            "geometry": {
                "type": "Point",
                "coordinates": [
                    13.553177,
                    52.531023
                ]
            },
            "properties": {
                "Lfd Nummer": "PL-089",
                "Name": "Zweier-Parklet Ketschendorfer Weg 11",
                "Straße": "Ketschendorfer Weg 11",
                "PLZ": 12683,
                "Bezirk": "Marzahn-Hellersdorf"
            }
        },
        {
            "type": "Feature",
            "geometry": {
                "type": "Point",
                "coordinates": [
                    13.477748,
                    52.506071
                ]
            },
            "properties": {
                "Lfd Nummer": "PL-090",
                "Name": "Parklet Pfarrstraße 93",
                "Straße": "Pfarrstr. 93",
                "PLZ": 10317,
                "Bezirk": "Lichtenberg"
            }
        },
        {
            "type": "Feature",
            "geometry": {
                "type": "Point",
                "coordinates": [
                    13.431195,
                    52.501624
                ]
            },
            "properties": {
                "Lfd Nummer": "PL-091",
                "Name": "Parklet Muskauer Straße 11A",
                "Straße": "Muskauer Str. 11A",
                "PLZ": 10997,
                "Bezirk": "Friedrichshain-Kreuzberg"
            }
        },
        {
            "type": "Feature",
            "geometry": {
                "type": "Point",
                "coordinates": [
                    13.397655,
                    52.492997
                ]
            },
            "properties": {
                "Lfd Nummer": "PL-092",
                "Name": "Parklet Fürbringer Straße 21",
                "Straße": "Fürbringer Str. 21",
                "PLZ": 10961,
                "Bezirk": "Friedrichshain-Kreuzberg"
            }
        }
    ]
}