{
    "type": "FeatureCollection",
    "name": "DatenbasisKarteSE",
    "crs": {
        "type": "name",
        "properties": {
            "name": "urn:ogc:def:crs:EPSG::4326"
        }
    },
    "features": [
        {
            "type": "Feature",
            "geometry": {
                "type": "Point",
                "coordinates": [
                    13.398488,
                    52.604377
                ]
            },
            "properties": {
                "Lfd Nummer": "SE-001",
                "Name": "Bauerngarten Blankenfelde",
                "Gartentyp": "Selbsterntegarten",
                "Über uns  Selbstbeschreibung": null,
                "Status": "Status unbekannt",
                "Straße": "Blankenfelder Chaussee 5",
                "PLZ": "13159 Berlin",
                "Bezirk": "Pankow",
                "Website  Social Media": "https://www.bauerngarten.net/standorte/#bauerngarten-pankow",
                "EMail": "info@bauerngarten.net",
                "Seit wann": 2010.0,
                "Flächengröße m²": 15000.0,
                "Organisationsform": "GbR",
                "Träger": "Max von Grafenstein - Hof Wendelin",
                "Nutzung": "Lebensmittelanbau, Bildung",
                "MitmachMöglichkeiten": "Mieten eigener Parzelle"
            }
        },
        {
            "type": "Feature",
            "geometry": {
                "type": "Point",
                "coordinates": [
                    13.173248,
                    52.47332
                ]
            },
            "properties": {
                "Lfd Nummer": "SE-002",
                "Name": "Bauerngarten Havelmathen",
                "Gartentyp": "Selbsterntegarten",
                "Über uns  Selbstbeschreibung": null,
                "Status": "Status unbekannt",
                "Straße": "Kladower Damm 57",
                "PLZ": "14089 Berlin",
                "Bezirk": "Spandau",
                "Website  Social Media": "https://www.bauerngarten.net/standorte/#bauerngarten-havelmathen",
                "EMail": "info@bauerngarten.net",
                "Seit wann": 2010.0,
                "Flächengröße m²": null,
                "Organisationsform": "GbR",
                "Träger": "Max von Grafenstein - Hof Wendelin",
                "Nutzung": "Lebensmittelanbau, Bildung",
                "MitmachMöglichkeiten": "Mieten eigener Parzelle"
            }
        },
        {
            "type": "Feature",
            "geometry": {
                "type": "Point",
                "coordinates": [
                    13.526357,
                    52.577952
                ]
            },
            "properties": {
                "Lfd Nummer": "SE-003",
                "Name": "meine Ernte Wartenberg - Gartenbaubetrieb Vogel",
                "Gartentyp": "Selbsterntegarten",
                "Über uns  Selbstbeschreibung": null,
                "Status": "Status unbekannt",
                "Straße": "Gartenbaubetrieb Vogel, Straße 10",
                "PLZ": "13059 Berlin",
                "Bezirk": "Lichtenberg",
                "Website  Social Media": "https://www.meine-ernte.de/shop/gemuesegarten-mieten-in-berlin-wartenberg/",
                "EMail": "info@meine-ernte.de",
                "Seit wann": null,
                "Flächengröße m²": null,
                "Organisationsform": null,
                "Träger": "meine ernte GmbH",
                "Nutzung": "Anbau von Lebensmitteln",
                "MitmachMöglichkeiten": "Mieten eigener Parzelle"
            }
        },
        {
            "type": "Feature",
            "geometry": {
                "type": "Point",
                "coordinates": [
                    13.476558,
                    52.400667
                ]
            },
            "properties": {
                "Lfd Nummer": "SE-004",
                "Name": "meine Ernte Berlin-Rudow - Gemüsegärten",
                "Gartentyp": "Selbsterntegarten",
                "Über uns  Selbstbeschreibung": null,
                "Status": "vertraglich befristet bestehend",
                "Straße": "Hof Lutz Gericke, Klein-Ziethener-Weg 17",
                "PLZ": "12355 Berlin",
                "Bezirk": "Neukölln",
                "Website  Social Media": "https://www.meine-ernte.de/shop/gemuesegarten-mieten-in-berlin-baumschulenweg/",
                "EMail": "info@meine-ernte.de",
                "Seit wann": 2011.0,
                "Flächengröße m²": 10000.0,
                "Organisationsform": "sonstige Organisationsform",
                "Träger": "meine ernte GmbH in Kooperation mit Hof Gericke",
                "Nutzung": "Anbau von Lebensmitteln",
                "MitmachMöglichkeiten": "Mieten eigener Parzelle"
            }
        },
        {
            "type": "Feature",
            "geometry": {
                "type": "Point",
                "coordinates": [
                    13.461556,
                    52.456559
                ]
            },
            "properties": {
                "Lfd Nummer": "SE-005",
                "Name": "meine Ernte Baumschulenweg - Hof Lutz Gericke",
                "Gartentyp": "Selbsterntegarten",
                "Über uns  Selbstbeschreibung": null,
                "Status": "Status unbekannt",
                "Straße": "Neue Späthstraße",
                "PLZ": "12359 Berlin",
                "Bezirk": "Treptow-Köpenick",
                "Website  Social Media": "https://www.meine-ernte.de/shop/gemuesegarten-mieten-in-berlin-rudow/",
                "EMail": "info@meine-ernte.de",
                "Seit wann": null,
                "Flächengröße m²": null,
                "Organisationsform": null,
                "Träger": "meine ernte GmbH",
                "Nutzung": "Anbau von Lebensmitteln",
                "MitmachMöglichkeiten": "Mieten eigener Parzelle"
            }
        },
        {
            "type": "Feature",
            "geometry": {
                "type": "Point",
                "coordinates": [
                    13.447389,
                    52.404258
                ]
            },
            "properties": {
                "Lfd Nummer": "SE-006",
                "Name": "Bauerngarten  Mette",
                "Gartentyp": "Selbsterntegarten",
                "Über uns  Selbstbeschreibung": "Im sonnigen Süden Berlins liegt unser bauerngarten-Standort Mette, in einer weiten märkischen Landschaft mit Getreidefeldern und freier Sicht bis zum Horizont, von fern grüßt der Fernsehturm am Alex. Der Standort ist beispielhaft für die bäuerliche Landwirtschaft am Stadtrand und wird an uns verpachtet vom Namensgeber Bauer Werner Mette, einem Urgestein der Berliner Stadtlandwirtschaft. Die Lage ist ruhig und abgeschieden, nur vereinzelt kommen Passanten vorbei.\nHier, unter dem weiten Himmel Brandenburgs, haben wir viel Platz und Ruhe für unsere Gartenkreise. Fernab von jeglichem Straßenlärm zwitschern beim Gärtnern über uns die Feldlerchen, der bauerngarten ist eingerahmt von Äckern und Wiesen. Die Mitglieder bilden eine besonders nette und aktive Gemeinschaft, Neue werden hilfsbereit und mit offenen Armen empfangen. Man kann auf der weitläufigen Fläche picknicken, in der Hängematte liegen oder nach getaner Gartenarbeit grillen.\nDie Gärten sind gut zu erreichen aus den Bezirken Friedrichshain-Kreuzberg, Tempelhof, Lichtenrade, Neukölln, Buckow, Rudow, Mahlow, Gropiusstadt, Schöneweide und Schönefeld. Der Standort Mette liegt an der südlichen Berliner Stadtgrenze bei Großziethen, an der Grenze zu Buckow:\nAuch mit dem Fahrrad vom Hermannplatz aus ist der bauerngarten gut erreichbar – über die Hermannstraße und den Buckower Damm immer geradewegs Richtung Süden, schon ist man da.",
                "Status": "Status unbekannt",
                "Straße": "Querweg 6 1/2",
                "PLZ": "12529 Schönefeld",
                "Bezirk": null,
                "Website  Social Media": "https://www.bauerngarten.net/standorte/#bauerngarten-mette",
                "EMail": "info@bauerngarten.net",
                "Seit wann": null,
                "Flächengröße m²": null,
                "Organisationsform": null,
                "Träger": null,
                "Nutzung": "Anbau von Lebensmitteln ",
                "MitmachMöglichkeiten": "Mieten eigener Parzelle"
            }
        },
        {
            "type": "Feature",
            "geometry": {
                "type": "Point",
                "coordinates": [
                    13.58767,
                    52.569942
                ]
            },
            "properties": {
                "Lfd Nummer": "SE-007",
                "Name": "Bauerngarten Ahrensfelde ",
                "Gartentyp": "Selbsterntegarten",
                "Über uns  Selbstbeschreibung": "Von unserem zwei Hektar großen sonnigen Acker in Ahrensfelde eröffnet sich ein beeindruckender Ausblick – von den weiten Feldern des Barnims im Osten über den alten Dorfkern von Ahrensfelde im Norden bis hin zu den imposanten Hochhäusern des Berliner Stadtteils Marzahn im Westen. Der kleine Ort Ahrensfelde liegt geografisch schon im ländlichen Brandenburg, die Großstadt Berlin ist dennoch zum Greifen nah.\nIn der Ferne tuckert ein Traktor über die Felder, die Feldlerchen zwitschern am Himmel ihr vertrautes Lied. Auf der weitläufigen bauerngarten-Fläche kann man nach getaner Arbeit wunderbar ausruhen oder bei einem Picknick das selbst geerntete Gemüse genießen. In nur 100 Metern Entfernung führt der Wuhletalweg vorbei, der die (Alte) Wuhle von Ahrensfelde bis zu ihrer Mündung in die Spree in Köpenick begleitet.",
                "Status": "Status unbekannt",
                "Straße": "Eichner Grenzweg/Ahrensfelder Chaussee",
                "PLZ": "16356 Ahrensfelde",
                "Bezirk": null,
                "Website  Social Media": "https://www.bauerngarten.net/standorte/#bauerngarten-ahrensfelde",
                "EMail": "info@bauerngarten.net",
                "Seit wann": null,
                "Flächengröße m²": 20000.0,
                "Organisationsform": null,
                "Träger": null,
                "Nutzung": "Anbau von lebensmitteln ",
                "MitmachMöglichkeiten": "Mieten eigener Parzelle"
            }
        }
    ]
}