{
    "type": "FeatureCollection",
    "features": [
        {
            "type": "Feature",
            "geometry": {
                "type": "Point",
                "coordinates": [
                    13.409740946525567,
                    52.51067040603983
                ]
            },
            "properties": {
                "Gartentyp": "Selbsterntegaerten"
            }
        },
        {
            "type": "Feature",
            "geometry": {
                "type": "Point",
                "coordinates": [
                    13.561723672829586,
                    52.48994863464616
                ]
            },
            "properties": {
                "Gartentyp": "Selbsterntegaerten"
            }
        },
        {
            "type": "Feature",
            "geometry": {
                "type": "Point",
                "coordinates": [
                    13.172690167099557,
                    52.44036643235262
                ]
            },
            "properties": {
                "Gartentyp": "Selbsterntegaerten"
            }
        },
        {
            "type": "Feature",
            "geometry": {
                "type": "Point",
                "coordinates": [
                    13.60612282211399,
                    52.55539669870442
                ]
            },
            "properties": {
                "Gartentyp": "Selbsterntegaerten"
            }
        },
        {
            "type": "Feature",
            "geometry": {
                "type": "Point",
                "coordinates": [
                    13.196573744832039,
                    52.409352138025035
                ]
            },
            "properties": {
                "Gartentyp": "Selbsterntegaerten"
            }
        },
        {
            "type": "Feature",
            "geometry": {
                "type": "Point",
                "coordinates": [
                    13.325259654355971,
                    52.566915838613546
                ]
            },
            "properties": {
                "Gartentyp": "Selbsterntegaerten"
            }
        },
        {
            "type": "Feature",
            "geometry": {
                "type": "Point",
                "coordinates": [
                    13.518071834733092,
                    52.41059577945331
                ]
            },
            "properties": {
                "Gartentyp": "Selbsterntegaerten"
            }
        },
        {
            "type": "Feature",
            "geometry": {
                "type": "Point",
                "coordinates": [
                    13.462016577731852,
                    52.53073714505394
                ]
            },
            "properties": {
                "Gartentyp": "Selbsterntegaerten"
            }
        },
        {
            "type": "Feature",
            "geometry": {
                "type": "Point",
                "coordinates": [
                    13.508372332480656,
                    52.52687018479128
                ]
            },
            "properties": {
                "Gartentyp": "Selbsterntegaerten"
            }
        },
        {
            "type": "Feature",
            "geometry": {
                "type": "Point",
                "coordinates": [
                    13.301244221824733,
                    52.569774163023
                ]
            },
            "properties": {
                "Gartentyp": "Selbsterntegaerten"
            }
        },
        {
            "type": "Feature",
            "geometry": {
                "type": "Point",
                "coordinates": [
                    13.34537926982054,
                    52.4291999636445
                ]
            },
            "properties": {
                "Gartentyp": "Selbsterntegaerten"
            }
        },
        {
            "type": "Feature",
            "geometry": {
                "type": "Point",
                "coordinates": [
                    13.318443324772993,
                    52.503814925362576
                ]
            },
            "properties": {
                "Gartentyp": "Selbsterntegaerten"
            }
        },
        {
            "type": "Feature",
            "geometry": {
                "type": "Point",
                "coordinates": [
                    13.448617171777837,
                    52.529865037651724
                ]
            },
            "properties": {
                "Gartentyp": "Selbsterntegaerten"
            }
        },
        {
            "type": "Feature",
            "geometry": {
                "type": "Point",
                "coordinates": [
                    13.351649776423592,
                    52.49016621247792
                ]
            },
            "properties": {
                "Gartentyp": "Selbsterntegaerten"
            }
        },
        {
            "type": "Feature",
            "geometry": {
                "type": "Point",
                "coordinates": [
                    13.569961034635147,
                    52.57852443689153
                ]
            },
            "properties": {
                "Gartentyp": "Selbsterntegaerten"
            }
        },
        {
            "type": "Feature",
            "geometry": {
                "type": "Point",
                "coordinates": [
                    13.456607089010623,
                    52.46172747691089
                ]
            },
            "properties": {
                "Gartentyp": "Selbsterntegaerten"
            }
        },
        {
            "type": "Feature",
            "geometry": {
                "type": "Point",
                "coordinates": [
                    13.359850635811002,
                    52.57855905224682
                ]
            },
            "properties": {
                "Gartentyp": "Selbsterntegaerten"
            }
        },
        {
            "type": "Feature",
            "geometry": {
                "type": "Point",
                "coordinates": [
                    13.49459727588346,
                    52.510805422997784
                ]
            },
            "properties": {
                "Gartentyp": "Selbsterntegaerten"
            }
        },
        {
            "type": "Feature",
            "geometry": {
                "type": "Point",
                "coordinates": [
                    13.341116336746849,
                    52.51814829747287
                ]
            },
            "properties": {
                "Gartentyp": "Selbsterntegaerten"
            }
        },
        {
            "type": "Feature",
            "geometry": {
                "type": "Point",
                "coordinates": [
                    13.567713056733457,
                    52.46278530881021
                ]
            },
            "properties": {
                "Gartentyp": "Selbsterntegaerten"
            }
        },
        {
            "type": "Feature",
            "geometry": {
                "type": "Point",
                "coordinates": [
                    13.472289046765601,
                    52.4894137476482
                ]
            },
            "properties": {
                "Gartentyp": "Selbsterntegaerten"
            }
        },
        {
            "type": "Feature",
            "geometry": {
                "type": "Point",
                "coordinates": [
                    13.59811767301092,
                    52.45312815914088
                ]
            },
            "properties": {
                "Gartentyp": "Selbsterntegaerten"
            }
        },
        {
            "type": "Feature",
            "geometry": {
                "type": "Point",
                "coordinates": [
                    13.180235925835454,
                    52.46105643971547
                ]
            },
            "properties": {
                "Gartentyp": "Selbsterntegaerten"
            }
        },
        {
            "type": "Feature",
            "geometry": {
                "type": "Point",
                "coordinates": [
                    13.515423258606615,
                    52.54669935496668
                ]
            },
            "properties": {
                "Gartentyp": "Selbsterntegaerten"
            }
        },
        {
            "type": "Feature",
            "geometry": {
                "type": "Point",
                "coordinates": [
                    13.200004838002673,
                    52.56957840628036
                ]
            },
            "properties": {
                "Gartentyp": "Selbsterntegaerten"
            }
        },
        {
            "type": "Feature",
            "geometry": {
                "type": "Point",
                "coordinates": [
                    13.341409738553839,
                    52.46791885960496
                ]
            },
            "properties": {
                "Gartentyp": "Selbsterntegaerten"
            }
        },
        {
            "type": "Feature",
            "geometry": {
                "type": "Point",
                "coordinates": [
                    13.442442283944349,
                    52.41239804616289
                ]
            },
            "properties": {
                "Gartentyp": "Selbsterntegaerten"
            }
        },
        {
            "type": "Feature",
            "geometry": {
                "type": "Point",
                "coordinates": [
                    13.435380120639866,
                    52.43301292502144
                ]
            },
            "properties": {
                "Gartentyp": "Selbsterntegaerten"
            }
        },
        {
            "type": "Feature",
            "geometry": {
                "type": "Point",
                "coordinates": [
                    13.238591059027414,
                    52.448275318880874
                ]
            },
            "properties": {
                "Gartentyp": "Selbsterntegaerten"
            }
        },
        {
            "type": "Feature",
            "geometry": {
                "type": "Point",
                "coordinates": [
                    13.264407948893604,
                    52.51697093219865
                ]
            },
            "properties": {
                "Gartentyp": "Selbsterntegaerten"
            }
        },
        {
            "type": "Feature",
            "geometry": {
                "type": "Point",
                "coordinates": [
                    13.33304356992016,
                    52.53129747194988
                ]
            },
            "properties": {
                "Gartentyp": "Selbsterntegaerten"
            }
        },
        {
            "type": "Feature",
            "geometry": {
                "type": "Point",
                "coordinates": [
                    13.562538622382835,
                    52.43543988336249
                ]
            },
            "properties": {
                "Gartentyp": "Selbsterntegaerten"
            }
        },
        {
            "type": "Feature",
            "geometry": {
                "type": "Point",
                "coordinates": [
                    13.385764818396451,
                    52.56049853064904
                ]
            },
            "properties": {
                "Gartentyp": "Selbsterntegaerten"
            }
        },
        {
            "type": "Feature",
            "geometry": {
                "type": "Point",
                "coordinates": [
                    13.351615642675279,
                    52.409876030513935
                ]
            },
            "properties": {
                "Gartentyp": "Selbsterntegaerten"
            }
        },
        {
            "type": "Feature",
            "geometry": {
                "type": "Point",
                "coordinates": [
                    13.447340282469538,
                    52.42677572682822
                ]
            },
            "properties": {
                "Gartentyp": "Selbsterntegaerten"
            }
        },
        {
            "type": "Feature",
            "geometry": {
                "type": "Point",
                "coordinates": [
                    13.275810266520482,
                    52.443945005190876
                ]
            },
            "properties": {
                "Gartentyp": "Selbsterntegaerten"
            }
        },
        {
            "type": "Feature",
            "geometry": {
                "type": "Point",
                "coordinates": [
                    13.269901262563357,
                    52.449807438875
                ]
            },
            "properties": {
                "Gartentyp": "Selbsterntegaerten"
            }
        },
        {
            "type": "Feature",
            "geometry": {
                "type": "Point",
                "coordinates": [
                    13.57666308827839,
                    52.48372104412415
                ]
            },
            "properties": {
                "Gartentyp": "Selbsterntegaerten"
            }
        },
        {
            "type": "Feature",
            "geometry": {
                "type": "Point",
                "coordinates": [
                    13.412107366632059,
                    52.44169488826995
                ]
            },
            "properties": {
                "Gartentyp": "Selbsterntegaerten"
            }
        },
        {
            "type": "Feature",
            "geometry": {
                "type": "Point",
                "coordinates": [
                    13.571307907081337,
                    52.457193794936195
                ]
            },
            "properties": {
                "Gartentyp": "Selbsterntegaerten"
            }
        },
        {
            "type": "Feature",
            "geometry": {
                "type": "Point",
                "coordinates": [
                    13.30267488834771,
                    52.5185621064015
                ]
            },
            "properties": {
                "Gartentyp": "Selbsterntegaerten"
            }
        },
        {
            "type": "Feature",
            "geometry": {
                "type": "Point",
                "coordinates": [
                    13.20520268550447,
                    52.55460147011678
                ]
            },
            "properties": {
                "Gartentyp": "Selbsterntegaerten"
            }
        },
        {
            "type": "Feature",
            "geometry": {
                "type": "Point",
                "coordinates": [
                    13.546995523002819,
                    52.445564522773225
                ]
            },
            "properties": {
                "Gartentyp": "Selbsterntegaerten"
            }
        },
        {
            "type": "Feature",
            "geometry": {
                "type": "Point",
                "coordinates": [
                    13.52575229570123,
                    52.49888192505859
                ]
            },
            "properties": {
                "Gartentyp": "Selbsterntegaerten"
            }
        },
        {
            "type": "Feature",
            "geometry": {
                "type": "Point",
                "coordinates": [
                    13.419776974040829,
                    52.49297064342262
                ]
            },
            "properties": {
                "Gartentyp": "Selbsterntegaerten"
            }
        },
        {
            "type": "Feature",
            "geometry": {
                "type": "Point",
                "coordinates": [
                    13.409901098738017,
                    52.533752069962375
                ]
            },
            "properties": {
                "Gartentyp": "Selbsterntegaerten"
            }
        },
        {
            "type": "Feature",
            "geometry": {
                "type": "Point",
                "coordinates": [
                    13.271011385392221,
                    52.53739885331613
                ]
            },
            "properties": {
                "Gartentyp": "Selbsterntegaerten"
            }
        },
        {
            "type": "Feature",
            "geometry": {
                "type": "Point",
                "coordinates": [
                    13.483241583465713,
                    52.45405537065133
                ]
            },
            "properties": {
                "Gartentyp": "Selbsterntegaerten"
            }
        },
        {
            "type": "Feature",
            "geometry": {
                "type": "Point",
                "coordinates": [
                    13.39709701579814,
                    52.56097303928704
                ]
            },
            "properties": {
                "Gartentyp": "Selbsterntegaerten"
            }
        },
        {
            "type": "Feature",
            "geometry": {
                "type": "Point",
                "coordinates": [
                    13.417037036905016,
                    52.50802605814909
                ]
            },
            "properties": {
                "Gartentyp": "Selbsterntegaerten"
            }
        },
        {
            "type": "Feature",
            "geometry": {
                "type": "Point",
                "coordinates": [
                    13.427353459347573,
                    52.46014372937872
                ]
            },
            "properties": {
                "Gartentyp": "Selbsterntegaerten"
            }
        },
        {
            "type": "Feature",
            "geometry": {
                "type": "Point",
                "coordinates": [
                    13.55392824509751,
                    52.42403238262885
                ]
            },
            "properties": {
                "Gartentyp": "Selbsterntegaerten"
            }
        },
        {
            "type": "Feature",
            "geometry": {
                "type": "Point",
                "coordinates": [
                    13.326748016215381,
                    52.5075891453756
                ]
            },
            "properties": {
                "Gartentyp": "Selbsterntegaerten"
            }
        },
        {
            "type": "Feature",
            "geometry": {
                "type": "Point",
                "coordinates": [
                    13.347030786149812,
                    52.460872571160664
                ]
            },
            "properties": {
                "Gartentyp": "Selbsterntegaerten"
            }
        },
        {
            "type": "Feature",
            "geometry": {
                "type": "Point",
                "coordinates": [
                    13.488033388633536,
                    52.480147564072595
                ]
            },
            "properties": {
                "Gartentyp": "Selbsterntegaerten"
            }
        },
        {
            "type": "Feature",
            "geometry": {
                "type": "Point",
                "coordinates": [
                    13.522942140688826,
                    52.48363530058895
                ]
            },
            "properties": {
                "Gartentyp": "Selbsterntegaerten"
            }
        },
        {
            "type": "Feature",
            "geometry": {
                "type": "Point",
                "coordinates": [
                    13.605884388347683,
                    52.5219810870372
                ]
            },
            "properties": {
                "Gartentyp": "Selbsterntegaerten"
            }
        },
        {
            "type": "Feature",
            "geometry": {
                "type": "Point",
                "coordinates": [
                    13.191866800550976,
                    52.49713232435292
                ]
            },
            "properties": {
                "Gartentyp": "Selbsterntegaerten"
            }
        },
        {
            "type": "Feature",
            "geometry": {
                "type": "Point",
                "coordinates": [
                    13.465883755499103,
                    52.507604186666605
                ]
            },
            "properties": {
                "Gartentyp": "Selbsterntegaerten"
            }
        },
        {
            "type": "Feature",
            "geometry": {
                "type": "Point",
                "coordinates": [
                    13.514570502881408,
                    52.46863428644578
                ]
            },
            "properties": {
                "Gartentyp": "Selbsterntegaerten"
            }
        },
        {
            "type": "Feature",
            "geometry": {
                "type": "Point",
                "coordinates": [
                    13.33430354096052,
                    52.479190793072696
                ]
            },
            "properties": {
                "Gartentyp": "Selbsterntegaerten"
            }
        },
        {
            "type": "Feature",
            "geometry": {
                "type": "Point",
                "coordinates": [
                    13.290399986462575,
                    52.45992510281351
                ]
            },
            "properties": {
                "Gartentyp": "Selbsterntegaerten"
            }
        },
        {
            "type": "Feature",
            "geometry": {
                "type": "Point",
                "coordinates": [
                    13.28115961490122,
                    52.51729846759628
                ]
            },
            "properties": {
                "Gartentyp": "Selbsterntegaerten"
            }
        },
        {
            "type": "Feature",
            "geometry": {
                "type": "Point",
                "coordinates": [
                    13.272175550008582,
                    52.45792165676367
                ]
            },
            "properties": {
                "Gartentyp": "Selbsterntegaerten"
            }
        },
        {
            "type": "Feature",
            "geometry": {
                "type": "Point",
                "coordinates": [
                    13.403279632878608,
                    52.57174616912239
                ]
            },
            "properties": {
                "Gartentyp": "Selbsterntegaerten"
            }
        },
        {
            "type": "Feature",
            "geometry": {
                "type": "Point",
                "coordinates": [
                    13.309787928442658,
                    52.43934827709127
                ]
            },
            "properties": {
                "Gartentyp": "Selbsterntegaerten"
            }
        },
        {
            "type": "Feature",
            "geometry": {
                "type": "Point",
                "coordinates": [
                    13.17245875149705,
                    52.4471228743446
                ]
            },
            "properties": {
                "Gartentyp": "Selbsterntegaerten"
            }
        },
        {
            "type": "Feature",
            "geometry": {
                "type": "Point",
                "coordinates": [
                    13.16420598481806,
                    52.541459316484676
                ]
            },
            "properties": {
                "Gartentyp": "Selbsterntegaerten"
            }
        },
        {
            "type": "Feature",
            "geometry": {
                "type": "Point",
                "coordinates": [
                    13.237226162667858,
                    52.49426439493591
                ]
            },
            "properties": {
                "Gartentyp": "Selbsterntegaerten"
            }
        },
        {
            "type": "Feature",
            "geometry": {
                "type": "Point",
                "coordinates": [
                    13.344938380372199,
                    52.45340600850745
                ]
            },
            "properties": {
                "Gartentyp": "Selbsterntegaerten"
            }
        },
        {
            "type": "Feature",
            "geometry": {
                "type": "Point",
                "coordinates": [
                    13.314025657233431,
                    52.53697267968384
                ]
            },
            "properties": {
                "Gartentyp": "Selbsterntegaerten"
            }
        },
        {
            "type": "Feature",
            "geometry": {
                "type": "Point",
                "coordinates": [
                    13.16164839761103,
                    52.553914429087385
                ]
            },
            "properties": {
                "Gartentyp": "Selbsterntegaerten"
            }
        },
        {
            "type": "Feature",
            "geometry": {
                "type": "Point",
                "coordinates": [
                    13.373623236658924,
                    52.4377271210735
                ]
            },
            "properties": {
                "Gartentyp": "Selbsterntegaerten"
            }
        },
        {
            "type": "Feature",
            "geometry": {
                "type": "Point",
                "coordinates": [
                    13.166940273638987,
                    52.499315427416256
                ]
            },
            "properties": {
                "Gartentyp": "Selbsterntegaerten"
            }
        },
        {
            "type": "Feature",
            "geometry": {
                "type": "Point",
                "coordinates": [
                    13.183092890744533,
                    52.525290312062005
                ]
            },
            "properties": {
                "Gartentyp": "Selbsterntegaerten"
            }
        },
        {
            "type": "Feature",
            "geometry": {
                "type": "Point",
                "coordinates": [
                    13.487834349168947,
                    52.53672627573746
                ]
            },
            "properties": {
                "Gartentyp": "Selbsterntegaerten"
            }
        },
        {
            "type": "Feature",
            "geometry": {
                "type": "Point",
                "coordinates": [
                    13.197786038747665,
                    52.509766022933945
                ]
            },
            "properties": {
                "Gartentyp": "Selbsterntegaerten"
            }
        },
        {
            "type": "Feature",
            "geometry": {
                "type": "Point",
                "coordinates": [
                    13.533933190673649,
                    52.41100945958778
                ]
            },
            "properties": {
                "Gartentyp": "Selbsterntegaerten"
            }
        },
        {
            "type": "Feature",
            "geometry": {
                "type": "Point",
                "coordinates": [
                    13.344817403807163,
                    52.570933439818496
                ]
            },
            "properties": {
                "Gartentyp": "Selbsterntegaerten"
            }
        },
        {
            "type": "Feature",
            "geometry": {
                "type": "Point",
                "coordinates": [
                    13.306314101419982,
                    52.41172718750325
                ]
            },
            "properties": {
                "Gartentyp": "Selbsterntegaerten"
            }
        },
        {
            "type": "Feature",
            "geometry": {
                "type": "Point",
                "coordinates": [
                    13.55848183487577,
                    52.49563494729682
                ]
            },
            "properties": {
                "Gartentyp": "Selbsterntegaerten"
            }
        },
        {
            "type": "Feature",
            "geometry": {
                "type": "Point",
                "coordinates": [
                    13.194967810628555,
                    52.427771445083785
                ]
            },
            "properties": {
                "Gartentyp": "Selbsterntegaerten"
            }
        },
        {
            "type": "Feature",
            "geometry": {
                "type": "Point",
                "coordinates": [
                    13.393031745326795,
                    52.5413866842164
                ]
            },
            "properties": {
                "Gartentyp": "Selbsterntegaerten"
            }
        },
        {
            "type": "Feature",
            "geometry": {
                "type": "Point",
                "coordinates": [
                    13.353981322856765,
                    52.47796070408831
                ]
            },
            "properties": {
                "Gartentyp": "Selbsterntegaerten"
            }
        },
        {
            "type": "Feature",
            "geometry": {
                "type": "Point",
                "coordinates": [
                    13.2659435226802,
                    52.47395751116184
                ]
            },
            "properties": {
                "Gartentyp": "Selbsterntegaerten"
            }
        },
        {
            "type": "Feature",
            "geometry": {
                "type": "Point",
                "coordinates": [
                    13.436596535072724,
                    52.426047044114746
                ]
            },
            "properties": {
                "Gartentyp": "Selbsterntegaerten"
            }
        },
        {
            "type": "Feature",
            "geometry": {
                "type": "Point",
                "coordinates": [
                    13.46045515858268,
                    52.56805488976922
                ]
            },
            "properties": {
                "Gartentyp": "Selbsterntegaerten"
            }
        },
        {
            "type": "Feature",
            "geometry": {
                "type": "Point",
                "coordinates": [
                    13.335543933257215,
                    52.57213467874004
                ]
            },
            "properties": {
                "Gartentyp": "Selbsterntegaerten"
            }
        },
        {
            "type": "Feature",
            "geometry": {
                "type": "Point",
                "coordinates": [
                    13.512585350695126,
                    52.41505063505432
                ]
            },
            "properties": {
                "Gartentyp": "Selbsterntegaerten"
            }
        },
        {
            "type": "Feature",
            "geometry": {
                "type": "Point",
                "coordinates": [
                    13.409885278960996,
                    52.41146584280594
                ]
            },
            "properties": {
                "Gartentyp": "Selbsterntegaerten"
            }
        },
        {
            "type": "Feature",
            "geometry": {
                "type": "Point",
                "coordinates": [
                    13.58304353858933,
                    52.541547162761574
                ]
            },
            "properties": {
                "Gartentyp": "Selbsterntegaerten"
            }
        },
        {
            "type": "Feature",
            "geometry": {
                "type": "Point",
                "coordinates": [
                    13.463538101865423,
                    52.4727534664681
                ]
            },
            "properties": {
                "Gartentyp": "Selbsterntegaerten"
            }
        },
        {
            "type": "Feature",
            "geometry": {
                "type": "Point",
                "coordinates": [
                    13.607020399909645,
                    52.54829611900398
                ]
            },
            "properties": {
                "Gartentyp": "Selbsterntegaerten"
            }
        },
        {
            "type": "Feature",
            "geometry": {
                "type": "Point",
                "coordinates": [
                    13.508336002698437,
                    52.53126703159117
                ]
            },
            "properties": {
                "Gartentyp": "Selbsterntegaerten"
            }
        },
        {
            "type": "Feature",
            "geometry": {
                "type": "Point",
                "coordinates": [
                    13.207331939881112,
                    52.49372939341954
                ]
            },
            "properties": {
                "Gartentyp": "Selbsterntegaerten"
            }
        },
        {
            "type": "Feature",
            "geometry": {
                "type": "Point",
                "coordinates": [
                    13.520881370718097,
                    52.45254134017192
                ]
            },
            "properties": {
                "Gartentyp": "Selbsterntegaerten"
            }
        },
        {
            "type": "Feature",
            "geometry": {
                "type": "Point",
                "coordinates": [
                    13.188320141339258,
                    52.417537454753194
                ]
            },
            "properties": {
                "Gartentyp": "Selbsterntegaerten"
            }
        },
        {
            "type": "Feature",
            "geometry": {
                "type": "Point",
                "coordinates": [
                    13.606419230700034,
                    52.432816238198384
                ]
            },
            "properties": {
                "Gartentyp": "Selbsterntegaerten"
            }
        },
        {
            "type": "Feature",
            "geometry": {
                "type": "Point",
                "coordinates": [
                    13.332180967771937,
                    52.40777581403088
                ]
            },
            "properties": {
                "Gartentyp": "Selbsterntegaerten"
            }
        },
        {
            "type": "Feature",
            "geometry": {
                "type": "Point",
                "coordinates": [
                    13.374758488706163,
                    52.464736163109635
                ]
            },
            "properties": {
                "Gartentyp": "Selbsterntegaerten"
            }
        }
    ]
}